{"type": "FeatureCollection", "features": [{"id": "0", "type": "Feature", "properties": {"N13_001": "2021-06-03", "N13_002": "2", "N13_003": "3", "N13_004": "1", "N13_005": 0, "N13_006": "1", "N13_007": "1", "N13_008": "533934", "rosen_name": 503}, "geometry": {"type": "LineString", "coordinates": [[139.50724600599858, 35.60403360416768], [139.50729212233375, 35.603976121301116], [139.5063406845751, 35.60323478136024], [139.5063665832514, 35.60318255503108], [139.5063686076253, 35.6031447736126]]}, "bbox": [139.5063406845751, 35.6031447736126, 139.50729212233375, 35.60403360416768]}, {"id": "1", "type": "Feature", "properties": {"N13_001": "2021-06-03", "N13_002": "1", "N13_003": "3", "N13_004": "1", "N13_005": 0, "N13_006": "3", "N13_007": "1", "N13_008": "533934", "rosen_name": 503}, "geometry": {"type": "LineString", "coordinates": [[139.50698457307976, 35.60424347625559], [139.50724600599858, 35.60403360416768]]}, "bbox": [139.50698457307976, 35.60403360416768, 139.50724600599858, 35.60424347625559]}, {"id": "2", "type": "Feature", "properties": {"N13_001": "2021-06-03", "N13_002": "1", "N13_003": "3", "N13_004": "1", "N13_005": 0, "N13_006": "3", "N13_007": "1", "N13_008": "533934", "rosen_name": 500}, "geometry": {"type": "LineString", "coordinates": [[139.50370372214923, 35.603293249883734], [139.5041267776288, 35.60318769375721], [139.50441388888999, 35.60309922205164], [139.5046316111601, 35.602998333406504], [139.50468638886593, 35.602958056369346]]}, "bbox": [139.50370372214923, 35.602958056369346, 139.50468638886593, 35.603293249883734]}, {"id": "3", "type": "Feature", "properties": {"N13_001": "2021-06-03", "N13_002": "1", "N13_003": "3", "N13_004": "1", "N13_005": 0, "N13_006": "3", "N13_007": "1", "N13_008": "533934", "rosen_name": 500}, "geometry": {"type": "LineString", "coordinates": [[139.50502688927975, 35.602695582934984], [139.5054290004482, 35.60234630603736], [139.50574941720197, 35.602068582799006], [139.50628650042188, 35.60157713927373], [139.50662033326194, 35.60125791681958]]}, "bbox": [139.50502688927975, 35.60125791681958, 139.50662033326194, 35.602695582934984]}, {"id": "4", "type": "Feature", "properties": {"N13_001": "2021-06-03", "N13_002": "1", "N13_003": "3", "N13_004": "1", "N13_005": 0, "N13_006": "3", "N13_007": "1", "N13_008": "533934", "rosen_name": 500}, "geometry": {"type": "LineString", "coordinates": [[139.50468638886593, 35.602958056369346], [139.5048382780643, 35.602846389349565], [139.50502688927975, 35.602695582934984]]}, "bbox": [139.50468638886593, 35.602695582934984, 139.50502688927975, 35.602958056369346]}, {"id": "5", "type": "Feature", "properties": {"N13_001": "2021-06-03", "N13_002": "1", "N13_003": "3", "N13_004": "1", "N13_005": 0, "N13_006": "1", "N13_007": "1", "N13_008": "533934", "rosen_name": 504}, "geometry": {"type": "LineString", "coordinates": [[139.50476008291173, 35.60303833255318], [139.50488861132055, 35.60312608300251], [139.50498063894554, 35.6031562219822]]}, "bbox": [139.50476008291173, 35.60303833255318, 139.50498063894554, 35.6031562219822]}, {"id": "6", "type": "Feature", "properties": {"N13_001": "2021-06-03", "N13_002": "1", "N13_003": "3", "N13_004": "1", "N13_005": 0, "N13_006": "2", "N13_007": "1", "N13_008": "533934", "rosen_name": 504}, "geometry": {"type": "LineString", "coordinates": [[139.50468638886593, 35.602958056369346], [139.50476008291173, 35.60303833255318]]}, "bbox": [139.50468638886593, 35.602958056369346, 139.50476008291173, 35.60303833255318]}, {"id": "7", "type": "Feature", "properties": {"N13_001": "2021-06-03", "N13_002": "1", "N13_003": "3", "N13_004": "1", "N13_005": 0, "N13_006": "2", "N13_007": "1", "N13_008": "533934", "rosen_name": 501}, "geometry": {"type": "LineString", "coordinates": [[139.50502688927975, 35.602695582934984], [139.50538130580276, 35.60296941660545]]}, "bbox": [139.50502688927975, 35.602695582934984, 139.50538130580276, 35.60296941660545]}, {"id": "8", "type": "Feature", "properties": {"N13_001": "2021-06-03", "N13_002": "1", "N13_003": "3", "N13_004": "1", "N13_005": 0, "N13_006": "3", "N13_007": "1", "N13_008": "533934", "rosen_name": 503}, "geometry": {"type": "LineString", "coordinates": [[139.5072217350952, 35.60442409609533], [139.5067779169675, 35.60477694420081]]}, "bbox": [139.5067779169675, 35.60442409609533, 139.5072217350952, 35.60477694420081]}, {"id": "9", "type": "Feature", "properties": {"N13_001": "2021-06-03", "N13_002": "1", "N13_003": "3", "N13_004": "1", "N13_005": 0, "N13_006": "2", "N13_007": "1", "N13_008": "533934", "rosen_name": 506}, "geometry": {"type": "LineString", "coordinates": [[139.50476008291173, 35.60303833255318], [139.5047281938513, 35.60309722195939], [139.50467902791502, 35.60320988902532], [139.5046266666875, 35.603316000033544], [139.50459811141388, 35.60336183308232], [139.50454891669938, 35.603418166615256], [139.50438702793917, 35.60354649987124], [139.50434099973756, 35.60358449982499], [139.50427436087318, 35.60369191664881], [139.50422486128855, 35.60376525006643], [139.50416299962296, 35.60381502844098], [139.5041264997384, 35.6038648059162], [139.50410111097767, 35.60390541660183], [139.50408999985382, 35.603951249650606], [139.50408524963473, 35.60399316705116], [139.5040836668279, 35.604112389275485], [139.504092639364, 35.60422241683125]]}, "bbox": [139.5040836668279, 35.60303833255318, 139.50476008291173, 35.60422241683125]}, {"id": "10", "type": "Feature", "properties": {"N13_001": "2021-06-03", "N13_002": "1", "N13_003": "3", "N13_004": "1", "N13_005": 0, "N13_006": "1", "N13_007": "1", "N13_008": "533934", "rosen_name": 505}, "geometry": {"type": "LineString", "coordinates": [[139.50498063894554, 35.6031562219822], [139.50497516657083, 35.6032097217514], [139.5049243890495, 35.60332105602208], [139.50488947197175, 35.60339572223495], [139.50493391736654, 35.60342061097259], [139.50495136061693, 35.60345861092634], [139.50494341690535, 35.60349527808478], [139.50491011141264, 35.603554250228626], [139.50485933299205, 35.603631528072754]]}, "bbox": [139.50485933299205, 35.6031562219822, 139.50498063894554, 35.603631528072754]}, {"id": "11", "type": "Feature", "properties": {"N13_001": "2021-06-03", "N13_002": "1", "N13_003": "3", "N13_004": "1", "N13_005": 0, "N13_006": "1", "N13_007": "1", "N13_008": "533934", "rosen_name": 505}, "geometry": {"type": "LineString", "coordinates": [[139.50468005584003, 35.603879111432036], [139.50471469412798, 35.60389344392746], [139.5047971943352, 35.60389869416957], [139.50493522228282, 35.603897361374266], [139.5049463334068, 35.603738861259615], [139.50494316689378, 35.60365108293132], [139.50485933299205, 35.603631528072754]]}, "bbox": [139.50468005584003, 35.603631528072754, 139.5049463334068, 35.60389869416957]}, {"id": "12", "type": "Feature", "properties": {"N13_001": "2021-06-03", "N13_002": "1", "N13_003": "3", "N13_004": "1", "N13_005": 0, "N13_006": "1", "N13_007": "1", "N13_008": "533934", "rosen_name": 505}, "geometry": {"type": "LineString", "coordinates": [[139.50468005584003, 35.603879111432036], [139.50458638875102, 35.60394066732812], [139.50445619389836, 35.6040166105783], [139.50431183292494, 35.60409258260677], [139.504092639364, 35.60422241683125]]}, "bbox": [139.504092639364, 35.603879111432036, 139.50468005584003, 35.60422241683125]}, {"id": "13", "type": "Feature", "properties": {"N13_001": "2021-06-03", "N13_002": "1", "N13_003": "3", "N13_004": "1", "N13_005": 0, "N13_006": "1", "N13_007": "1", "N13_008": "533934", "rosen_name": 505}, "geometry": {"type": "LineString", "coordinates": [[139.50485933299205, 35.603631528072754], [139.50468005584003, 35.603879111432036]]}, "bbox": [139.50468005584003, 35.603631528072754, 139.50485933299205, 35.603879111432036]}, {"id": "14", "type": "Feature", "properties": {"N13_001": "2021-06-03", "N13_002": "1", "N13_003": "3", "N13_004": "1", "N13_005": 0, "N13_006": "1", "N13_007": "1", "N13_008": "533934", "rosen_name": 504}, "geometry": {"type": "LineString", "coordinates": [[139.50498063894554, 35.6031562219822], [139.50504816723935, 35.60315997215514], [139.505149722282, 35.60316519361896], [139.50538130580276, 35.60296941660545]]}, "bbox": [139.50498063894554, 35.60296941660545, 139.50538130580276, 35.60316519361896]}, {"id": "15", "type": "Feature", "properties": {"N13_001": "2021-06-03", "N13_002": "1", "N13_003": "3", "N13_004": "1", "N13_005": 0, "N13_006": "3", "N13_007": "1", "N13_008": "533934", "rosen_name": 503}, "geometry": {"type": "LineString", "coordinates": [[139.50724600599858, 35.60403360416768], [139.50746930316598, 35.60421596599423], [139.5072217350952, 35.60442409609533]]}, "bbox": [139.5072217350952, 35.60403360416768, 139.50746930316598, 35.60442409609533]}, {"id": "16", "type": "Feature", "properties": {"N13_001": "2021-06-03", "N13_002": "1", "N13_003": "3", "N13_004": "1", "N13_005": 0, "N13_006": "3", "N13_007": "1", "N13_008": "533934", "rosen_name": 501}, "geometry": {"type": "LineString", "coordinates": [[139.50538130580276, 35.60296941660545], [139.5055053331048, 35.60306522228234], [139.50653158276646, 35.60388611085551], [139.50698457307976, 35.60424347625559]]}, "bbox": [139.50538130580276, 35.60296941660545, 139.50698457307976, 35.60424347625559]}, {"id": "17", "type": "Feature", "properties": {"N13_001": "2021-06-03", "N13_002": "1", "N13_003": "3", "N13_004": "1", "N13_005": 0, "N13_006": "3", "N13_007": "1", "N13_008": "533934", "rosen_name": 501}, "geometry": {"type": "LineString", "coordinates": [[139.5072217350952, 35.60442409609533], [139.50764044415132, 35.604747638892604], [139.50776869377034, 35.60483863859247], [139.50787758278443, 35.60486833330708], [139.50798405621936, 35.60486833330708], [139.50808811137745, 35.60484261089795], [139.5081776388871, 35.60478522156092], [139.50824541719248, 35.6047298332154], [139.50833250034475, 35.604658611405966], [139.50833333311698, 35.604657917129316], [139.5083359717279, 35.60465572188423]]}, "bbox": [139.5072217350952, 35.60442409609533, 139.5083359717279, 35.60486833330708]}, {"id": "18", "type": "Feature", "properties": {"N13_001": "2021-06-03", "N13_002": "1", "N13_003": "3", "N13_004": "1", "N13_005": 0, "N13_006": "3", "N13_007": "1", "N13_008": "533934", "rosen_name": 501}, "geometry": {"type": "LineString", "coordinates": [[139.50698457307976, 35.60424347625559], [139.5071003059345, 35.60433477812768], [139.5072217350952, 35.60442409609533]]}, "bbox": [139.50698457307976, 35.60424347625559, 139.5072217350952, 35.60442409609533]}], "bbox": [139.50370372214923, 35.60125791681958, 139.5083359717279, 35.60486833330708]}