{"type": "FeatureCollection", "features": [{"id": "0", "type": "Feature", "properties": {"N13_001": "2021-06-03", "N13_002": "1", "N13_003": "1", "N13_004": "2", "N13_005": 0, "N13_006": "5", "N13_007": "1", "N13_008": "533954", "rosen_name": 254}, "geometry": {"type": "LineString", "coordinates": [[139.61507836877183, 35.80584292730941], [139.61503672386584, 35.805910774862525], [139.6149257951895, 35.80616851876232]]}, "bbox": [139.6149257951895, 35.80584292730941, 139.61507836877183, 35.80616851876232]}, {"id": "1", "type": "Feature", "properties": {"N13_001": "2021-06-03", "N13_002": "1", "N13_003": "1", "N13_004": "1", "N13_005": 0, "N13_006": "5", "N13_007": "1", "N13_008": "533954", "rosen_name": 254}, "geometry": {"type": "LineString", "coordinates": [[139.61512258663822, 35.80576193796321], [139.61507836877183, 35.80584292730941]]}, "bbox": [139.61507836877183, 35.80576193796321, 139.61512258663822, 35.80584292730941]}, {"id": "2", "type": "Feature", "properties": {"N13_001": "2021-06-03", "N13_002": "1", "N13_003": "1", "N13_004": "2", "N13_005": 1, "N13_006": "5", "N13_007": "1", "N13_008": "533954", "rosen_name": 254}, "geometry": {"type": "LineString", "coordinates": [[139.61492802460884, 35.81173532402613], [139.6149632627446, 35.812269480852024], [139.61499774455046, 35.81281107417192], [139.6150179631087, 35.81312863018229], [139.61507431193013, 35.81398770576817], [139.6151089619092, 35.81455443783722], [139.61511348010322, 35.81463675728071]]}, "bbox": [139.61492802460884, 35.81173532402613, 139.61511348010322, 35.81463675728071]}, {"id": "3", "type": "Feature", "properties": {"N13_001": "2021-06-03", "N13_002": "1", "N13_003": "1", "N13_004": "1", "N13_005": 0, "N13_006": "5", "N13_007": "1", "N13_008": "533954", "rosen_name": 254}, "geometry": {"type": "LineString", "coordinates": [[139.61472148630776, 35.80858762671778], [139.61472829057834, 35.808665908205285], [139.61473501570856, 35.80874569335924], [139.6147563467282, 35.80906071238212], [139.61477741874307, 35.80936086111501], [139.61478431384523, 35.809459074277015], [139.61478572578085, 35.809481870292245], [139.61479186635177, 35.80958094320613], [139.61480339655964, 35.80976701023951], [139.61483529011673, 35.81023785659198], [139.6148577776645, 35.81059105363437], [139.61486365383473, 35.81069025874859], [139.61492802460884, 35.81173532402613]]}, "bbox": [139.61472148630776, 35.80858762671778, 139.61492802460884, 35.81173532402613]}, {"id": "4", "type": "Feature", "properties": {"N13_001": "2021-06-03", "N13_002": "1", "N13_003": "1", "N13_004": "2", "N13_005": 0, "N13_006": "3", "N13_007": "1", "N13_008": "533954", "rosen_name": 298}, "geometry": {"type": "LineString", "coordinates": [[139.62495955014333, 35.80699825396641], [139.62499999985027, 35.80704480557347]]}, "bbox": [139.62495955014333, 35.80699825396641, 139.62499999985027, 35.80704480557347]}, {"id": "5", "type": "Feature", "properties": {"N13_001": "2021-06-03", "N13_002": "1", "N13_003": "1", "N13_004": "2", "N13_005": 1, "N13_006": "3", "N13_007": "1", "N13_008": "533954", "rosen_name": 298}, "geometry": {"type": "LineString", "coordinates": [[139.62180401704188, 35.8035242772238], [139.62229507925463, 35.80408960635043]]}, "bbox": [139.62180401704188, 35.8035242772238, 139.62229507925463, 35.80408960635043]}, {"id": "6", "type": "Feature", "properties": {"N13_001": "2021-06-03", "N13_002": "1", "N13_003": "1", "N13_004": "1", "N13_005": 0, "N13_006": "5", "N13_007": "1", "N13_008": "533954", "rosen_name": 254}, "geometry": {"type": "LineString", "coordinates": [[139.61885172712573, 35.803275567014], [139.61828959239097, 35.803579825648626]]}, "bbox": [139.61828959239097, 35.803275567014, 139.61885172712573, 35.803579825648626]}, {"id": "7", "type": "Feature", "properties": {"N13_001": "2021-06-03", "N13_002": "1", "N13_003": "1", "N13_004": "1", "N13_005": 0, "N13_006": "5", "N13_007": "1", "N13_008": "533954", "rosen_name": 254}, "geometry": {"type": "LineString", "coordinates": [[139.62029263799502, 35.80248934190979], [139.6207586154179, 35.80225361431303]]}, "bbox": [139.62029263799502, 35.80225361431303, 139.6207586154179, 35.80248934190979]}, {"id": "8", "type": "Feature", "properties": {"N13_001": "2021-06-03", "N13_002": "1", "N13_003": "1", "N13_004": "2", "N13_005": 0, "N13_006": "3", "N13_007": "1", "N13_008": "533954", "rosen_name": 298}, "geometry": {"type": "LineString", "coordinates": [[139.62483857334166, 35.807474935120354], [139.62488049973547, 35.80751391713375], [139.62499999985027, 35.807632167190945]]}, "bbox": [139.62483857334166, 35.807474935120354, 139.62499999985027, 35.807632167190945]}, {"id": "9", "type": "Feature", "properties": {"N13_001": "2021-06-03", "N13_002": "1", "N13_003": "1", "N13_004": "2", "N13_005": 1, "N13_006": "3", "N13_007": "1", "N13_008": "533954", "rosen_name": 298}, "geometry": {"type": "LineString", "coordinates": [[139.6211834191796, 35.80357197007055], [139.62121291784206, 35.80360554805776]]}, "bbox": [139.6211834191796, 35.80357197007055, 139.62121291784206, 35.80360554805776]}, {"id": "10", "type": "Feature", "properties": {"N13_001": "2021-06-03", "N13_002": "1", "N13_003": "1", "N13_004": "1", "N13_005": 0, "N13_006": "5", "N13_007": "1", "N13_008": "533954", "rosen_name": 254}, "geometry": {"type": "LineString", "coordinates": [[139.6149257951895, 35.80616851876232], [139.61487134663548, 35.80633879100259], [139.61481986404567, 35.806522260793884], [139.61479449866738, 35.80664568465079], [139.6147674686439, 35.80681411687817], [139.6147671835588, 35.806815529713106], [139.61475206325724, 35.806910424376724], [139.61473561915363, 35.80703875403543], [139.61473076371396, 35.80707309284912], [139.61472380116265, 35.80712532457426], [139.61470137297022, 35.807454935996645], [139.61469541586098, 35.807795588395834], [139.6146964347928, 35.80784067770526]]}, "bbox": [139.61469541586098, 35.80616851876232, 139.6149257951895, 35.80784067770526]}, {"id": "11", "type": "Feature", "properties": {"N13_001": "2021-06-03", "N13_002": "1", "N13_003": "1", "N13_004": "1", "N13_005": 0, "N13_006": "5", "N13_007": "1", "N13_008": "533954", "rosen_name": 254}, "geometry": {"type": "LineString", "coordinates": [[139.61605819992621, 35.80484108165075], [139.61600674881254, 35.80487893861232], [139.6159244536508, 35.80493948996565], [139.61577623008918, 35.80505745583707], [139.6156732424264, 35.80514833772577], [139.6156603299604, 35.805160116146624], [139.61563003000208, 35.805188666024264], [139.61558534179028, 35.80523200795096], [139.6155489291399, 35.80526868320334], [139.6155132431419, 35.805305828801124], [139.61547135092223, 35.80535098376106], [139.61537632136037, 35.80544273709279], [139.6152614140832, 35.805575876325804], [139.61512258663822, 35.80576193796321]]}, "bbox": [139.61512258663822, 35.80484108165075, 139.61605819992621, 35.80576193796321]}, {"id": "12", "type": "Feature", "properties": {"N13_001": "2021-06-03", "N13_002": "1", "N13_003": "1", "N13_004": "1", "N13_005": 0, "N13_006": "5", "N13_007": "1", "N13_008": "533954", "rosen_name": 254}, "geometry": {"type": "LineString", "coordinates": [[139.61605819992621, 35.80484108165075], [139.61609263856462, 35.80481812555621], [139.61616545936863, 35.804769586447435], [139.6162952279426, 35.80468423359065], [139.61639355711714, 35.80462299875256], [139.6165102576424, 35.804555394016404], [139.61666666683334, 35.804469639162676], [139.61828959239097, 35.803579825648626]]}, "bbox": [139.61605819992621, 35.803579825648626, 139.61828959239097, 35.80484108165075]}, {"id": "13", "type": "Feature", "properties": {"N13_001": "2021-06-03", "N13_002": "1", "N13_003": "1", "N13_004": "1", "N13_005": 0, "N13_006": "5", "N13_007": "1", "N13_008": "533954", "rosen_name": 254}, "geometry": {"type": "LineString", "coordinates": [[139.6146964347928, 35.80784067770526], [139.61470003387967, 35.80799990717014], [139.61470450800687, 35.808197836261286], [139.6147075710977, 35.808333332617394], [139.61470797399397, 35.80835118326064], [139.61470843894347, 35.80836304621778], [139.61472148630776, 35.80858762671778]]}, "bbox": [139.6146964347928, 35.80784067770526, 139.61472148630776, 35.80858762671778]}, {"id": "14", "type": "Feature", "properties": {"N13_001": "2021-06-03", "N13_002": "1", "N13_003": "1", "N13_004": "1", "N13_005": 0, "N13_006": "5", "N13_007": "1", "N13_008": "533954", "rosen_name": 254}, "geometry": {"type": "LineString", "coordinates": [[139.6085680829508, 35.82112216695458], [139.60864529784237, 35.821057059635734], [139.60916321830803, 35.820637775912815]]}, "bbox": [139.6085680829508, 35.820637775912815, 139.60916321830803, 35.82112216695458]}, {"id": "15", "type": "Feature", "properties": {"N13_001": "2021-06-03", "N13_002": "1", "N13_003": "1", "N13_004": "1", "N13_005": 0, "N13_006": "5", "N13_007": "1", "N13_008": "533954", "rosen_name": 254}, "geometry": {"type": "LineString", "coordinates": [[139.61146328390362, 35.819153686793356], [139.6110213291712, 35.81939701006411], [139.61050684861232, 35.81969675140414], [139.61041187211038, 35.81975750060832]]}, "bbox": [139.61041187211038, 35.819153686793356, 139.61146328390362, 35.81975750060832]}, {"id": "16", "type": "Feature", "properties": {"N13_001": "2021-06-03", "N13_002": "1", "N13_003": "1", "N13_004": "1", "N13_005": 0, "N13_006": "5", "N13_007": "1", "N13_008": "533954", "rosen_name": 254}, "geometry": {"type": "LineString", "coordinates": [[139.61511348010322, 35.81463675728071], [139.6151171421426, 35.814703469889366], [139.61512922273562, 35.81494058603937], [139.61513151061092, 35.814994152358395], [139.6151354487422, 35.815101283197805], [139.61513599013404, 35.8151242482856], [139.6151368876574, 35.81525438108497], [139.61513368786962, 35.815407469978936], [139.61512900330104, 35.81549926288085], [139.6151265814268, 35.815537224163734], [139.61512461281086, 35.81556807090993], [139.61511624731713, 35.81565968124943], [139.61511214191205, 35.815699443874394], [139.61510915886072, 35.81572834089036], [139.61510263338005, 35.81577395000795], [139.6150889672822, 35.81586512507562], [139.61508514876084, 35.81588787882271], [139.61506622972286, 35.81597840727784], [139.61505654222583, 35.816023645874736], [139.61505132076206, 35.81604620177097], [139.61504353892838, 35.81607611592017], [139.6150215585982, 35.81615831035788], [139.61500912277302, 35.81620308310596], [139.61500640142447, 35.81621145039827], [139.61499230275274, 35.81625478333177], [139.61497154819858, 35.81631360438951], [139.6149693286718, 35.81631849400344], [139.61488788786596, 35.81653951678544], [139.6148510633261, 35.816619033042116], [139.61484279495915, 35.81663688458474], [139.6148290029563, 35.81666666743291], [139.6148171013283, 35.816692365560414], [139.61477996922042, 35.81676597776783], [139.61471547703786, 35.81688145521514], [139.61470564115257, 35.816897539589945], [139.61464780215454, 35.81699271304342], [139.61461113589542, 35.81704808340248], [139.61455505417257, 35.81712547186322], [139.61451268261442, 35.817182272144294], [139.61449203507948, 35.81720995237754], [139.61446126027909, 35.81724724186688], [139.61440496631633, 35.817313860046795], [139.6143741231674, 35.81735111536187], [139.61436136808288, 35.81736577610985], [139.61424779360095, 35.81748735995387], [139.614220865201, 35.817515840583724], [139.61419335314088, 35.81754394799498], [139.6141147443002, 35.81761925632378], [139.6140704248104, 35.81765930403384], [139.61403313172377, 35.817692417970875], [139.61401351840937, 35.81770895380532], [139.6139871349984, 35.81773119763682], [139.61394841198978, 35.817763202709784], [139.61390922313228, 35.81779482916818], [139.61388546933915, 35.81781360881115], [139.61382905936375, 35.81785575374022], [139.61381228880623, 35.81786828309498], [139.61376266781303, 35.81790396909304], [139.6137127329564, 35.817939370905435], [139.61366153365304, 35.817974144091636], [139.61365341277497, 35.81797965873443], [139.61359369689183, 35.818019553559736], [139.6135602843798, 35.81804155097694], [139.61353363387025, 35.8180590940521], [139.61347323899895, 35.81809828201028], [139.61341146726556, 35.818136043643676], [139.61334051974939, 35.81817881899747], [139.61325024130576, 35.81823049674017], [139.6132161785839, 35.818249609132295], [139.61317755629932, 35.81827128189428], [139.61307743297732, 35.81832458381268], [139.6129903030602, 35.81837061561157]]}, "bbox": [139.6129903030602, 35.81463675728071, 139.6151368876574, 35.81837061561157]}, {"id": "17", "type": "Feature", "properties": {"N13_001": "2021-06-03", "N13_002": "1", "N13_003": "1", "N13_004": "1", "N13_005": 0, "N13_006": "5", "N13_007": "1", "N13_008": "533954", "rosen_name": 254}, "geometry": {"type": "LineString", "coordinates": [[139.60970994405886, 35.82022069373022], [139.60937869227303, 35.82047339692991], [139.609276443853, 35.82055139872824], [139.60916321830803, 35.820637775912815]]}, "bbox": [139.60916321830803, 35.82022069373022, 139.60970994405886, 35.820637775912815]}, {"id": "18", "type": "Feature", "properties": {"N13_001": "2021-06-03", "N13_002": "1", "N13_003": "1", "N13_004": "1", "N13_005": 0, "N13_006": "5", "N13_007": "1", "N13_008": "533954", "rosen_name": 254}, "geometry": {"type": "LineString", "coordinates": [[139.61041187211038, 35.81975750060832], [139.61035774911102, 35.81979213260098], [139.610013416686, 35.8200133766162], [139.60998681114256, 35.8200315528141], [139.60988936869956, 35.82009812063194], [139.60978990458057, 35.820166068909145], [139.60970994405886, 35.82022069373022]]}, "bbox": [139.60970994405886, 35.81975750060832, 139.61041187211038, 35.82022069373022]}, {"id": "19", "type": "Feature", "properties": {"N13_001": "2021-06-03", "N13_002": "1", "N13_003": "1", "N13_004": "1", "N13_005": 0, "N13_006": "5", "N13_007": "1", "N13_008": "533954", "rosen_name": 254}, "geometry": {"type": "LineString", "coordinates": [[139.6129903030602, 35.81837061561157], [139.61294173966974, 35.81839615815636], [139.612608991412, 35.818571171622466], [139.61204185374868, 35.81885952304873], [139.6119213481918, 35.81892079206108], [139.61181234856122, 35.81897621098352], [139.61146328390362, 35.819153686793356]]}, "bbox": [139.61146328390362, 35.81837061561157, 139.6129903030602, 35.819153686793356]}, {"id": "20", "type": "Feature", "properties": {"N13_001": "2021-06-03", "N13_002": "1", "N13_003": "1", "N13_004": "1", "N13_005": 0, "N13_006": "3", "N13_007": "1", "N13_008": "533954", "rosen_name": 298}, "geometry": {"type": "LineString", "coordinates": [[139.62029263799502, 35.80248934190979], [139.62045733803586, 35.802687790809046], [139.6211834191796, 35.80357197007055]]}, "bbox": [139.62029263799502, 35.80248934190979, 139.6211834191796, 35.80357197007055]}, {"id": "21", "type": "Feature", "properties": {"N13_001": "2021-06-03", "N13_002": "1", "N13_003": "1", "N13_004": "2", "N13_005": 1, "N13_006": "3", "N13_007": "1", "N13_008": "533954", "rosen_name": 298}, "geometry": {"type": "LineString", "coordinates": [[139.62121291784206, 35.80360554805776], [139.6213533352884, 35.80379760097867], [139.62184313755097, 35.804350131853255], [139.6220185368262, 35.804554896691286], [139.6226538727782, 35.805267175939605], [139.62318758264098, 35.80583797204491], [139.62347847555134, 35.80613173738993], [139.62374868675272, 35.80640460428924], [139.62374869394728, 35.80640461058448], [139.6239920720766, 35.80666054055166], [139.62449912333602, 35.80715932973942], [139.62483857334166, 35.807474935120354]]}, "bbox": [139.62121291784206, 35.80360554805776, 139.62483857334166, 35.807474935120354]}, {"id": "22", "type": "Feature", "properties": {"N13_001": "2021-06-03", "N13_002": "1", "N13_003": "1", "N13_004": "1", "N13_005": 0, "N13_006": "3", "N13_007": "1", "N13_008": "533954", "rosen_name": 298}, "geometry": {"type": "LineString", "coordinates": [[139.62180401704188, 35.8035242772238], [139.6211446386144, 35.802732889111724], [139.6207586154179, 35.80225361431303]]}, "bbox": [139.6207586154179, 35.80225361431303, 139.62180401704188, 35.8035242772238]}, {"id": "23", "type": "Feature", "properties": {"N13_001": "2021-06-03", "N13_002": "1", "N13_003": "1", "N13_004": "2", "N13_005": 1, "N13_006": "3", "N13_007": "1", "N13_008": "533954", "rosen_name": 298}, "geometry": {"type": "LineString", "coordinates": [[139.62229507925463, 35.80408960635043], [139.62239044696173, 35.80420222125565], [139.62256971242243, 35.80440462807127], [139.62390968068735, 35.805824316739006], [139.62420782303275, 35.80614385935178], [139.62495955014333, 35.80699825396641]]}, "bbox": [139.62229507925463, 35.80408960635043, 139.62495955014333, 35.80699825396641]}, {"id": "24", "type": "Feature", "properties": {"N13_001": "2021-06-03", "N13_002": "1", "N13_003": "1", "N13_004": "1", "N13_005": 0, "N13_006": "5", "N13_007": "1", "N13_008": "533954", "rosen_name": 254}, "geometry": {"type": "LineString", "coordinates": [[139.62029263799502, 35.80248934190979], [139.62011750312047, 35.802579400019454], [139.61979052761092, 35.80275377766486], [139.61885172712573, 35.803275567014]]}, "bbox": [139.61885172712573, 35.80248934190979, 139.62029263799502, 35.803275567014]}, {"id": "25", "type": "Feature", "properties": {"N13_001": "2022-03-23", "N13_002": "1", "N13_003": "1", "N13_004": "2", "N13_005": 0, "N13_006": "3", "N13_007": "1", "N13_008": "533955", "rosen_name": 298}, "geometry": {"type": "LineString", "coordinates": [[139.62504495606004, 35.80708854410119], [139.62499999985027, 35.80704480557347]]}, "bbox": [139.62499999985027, 35.80704480557347, 139.62504495606004, 35.80708854410119]}, {"id": "26", "type": "Feature", "properties": {"N13_001": "2022-03-23", "N13_002": "1", "N13_003": "1", "N13_004": "1", "N13_005": 0, "N13_006": "3", "N13_007": "1", "N13_008": "533955", "rosen_name": 17}, "geometry": {"type": "LineString", "coordinates": [[139.63332431806305, 35.832192691839396], [139.6333333328672, 35.8321828892291]]}, "bbox": [139.63332431806305, 35.8321828892291, 139.6333333328672, 35.832192691839396]}, {"id": "27", "type": "Feature", "properties": {"N13_001": "2022-03-23", "N13_002": "1", "N13_003": "1", "N13_004": "1", "N13_005": 0, "N13_006": "3", "N13_007": "1", "N13_008": "533955", "rosen_name": 17}, "geometry": {"type": "LineString", "coordinates": [[139.6331933372029, 35.83234085334789], [139.63310502018066, 35.832430426722965], [139.63268536233977, 35.83278632173153]]}, "bbox": [139.63268536233977, 35.83234085334789, 139.6331933372029, 35.83278632173153]}, {"id": "28", "type": "Feature", "properties": {"N13_001": "2022-03-23", "N13_002": "1", "N13_003": "1", "N13_004": "1", "N13_005": 0, "N13_006": "3", "N13_007": "1", "N13_008": "533955", "rosen_name": 17}, "geometry": {"type": "LineString", "coordinates": [[139.63268536233977, 35.83278632173153], [139.632447193983, 35.832995416805204], [139.63213811678088, 35.833333332567406]]}, "bbox": [139.63213811678088, 35.83278632173153, 139.63268536233977, 35.833333332567406]}, {"id": "29", "type": "Feature", "properties": {"N13_001": "2022-03-23", "N13_002": "1", "N13_003": "1", "N13_004": "1", "N13_005": 0, "N13_006": "3", "N13_007": "1", "N13_008": "533955", "rosen_name": 17}, "geometry": {"type": "LineString", "coordinates": [[139.6331933372029, 35.83234085334789], [139.63332431806305, 35.832192691839396]]}, "bbox": [139.6331933372029, 35.832192691839396, 139.63332431806305, 35.83234085334789]}, {"id": "30", "type": "Feature", "properties": {"N13_001": "2022-03-23", "N13_002": "1", "N13_003": "1", "N13_004": "1", "N13_005": 0, "N13_006": "3", "N13_007": "1", "N13_008": "533955", "rosen_name": 17}, "geometry": {"type": "LineString", "coordinates": [[139.63304519637893, 35.833333332567406], [139.63314658504703, 35.83321142316879], [139.63328881642587, 35.8330346146559]]}, "bbox": [139.63304519637893, 35.8330346146559, 139.63328881642587, 35.833333332567406]}, {"id": "31", "type": "Feature", "properties": {"N13_001": "2022-03-23", "N13_002": "1", "N13_003": "1", "N13_004": "1", "N13_005": 0, "N13_006": "3", "N13_007": "1", "N13_008": "533955", "rosen_name": 17}, "geometry": {"type": "LineString", "coordinates": [[139.63328881642587, 35.8330346146559], [139.6333333328672, 35.8329792739745]]}, "bbox": [139.63328881642587, 35.8329792739745, 139.6333333328672, 35.8330346146559]}, {"id": "32", "type": "Feature", "properties": {"N13_001": "2023-07-14", "N13_002": "1", "N13_003": "1", "N13_004": "1", "N13_005": 0, "N13_006": "3", "N13_007": "1", "N13_008": "533955", "rosen_name": 298}, "geometry": {"type": "LineString", "coordinates": [[139.6343766138898, 35.81659458497228], [139.63414662576633, 35.81638205898503]]}, "bbox": [139.63414662576633, 35.81638205898503, 139.6343766138898, 35.81659458497228]}, {"id": "33", "type": "Feature", "properties": {"N13_001": "2023-07-14", "N13_002": "1", "N13_003": "1", "N13_004": "2", "N13_005": 1, "N13_006": "3", "N13_007": "1", "N13_008": "533955", "rosen_name": 298}, "geometry": {"type": "LineString", "coordinates": [[139.63375082963728, 35.81665458683989], [139.6333333328672, 35.81626306968508]]}, "bbox": [139.6333333328672, 35.81626306968508, 139.63375082963728, 35.81665458683989]}, {"id": "34", "type": "Feature", "properties": {"N13_001": "2023-07-14", "N13_002": "1", "N13_003": "1", "N13_004": "2", "N13_005": 1, "N13_006": "3", "N13_007": "1", "N13_008": "533955", "rosen_name": 298}, "geometry": {"type": "LineString", "coordinates": [[139.63414662576633, 35.81638205898503], [139.6333333328672, 35.8156305162355]]}, "bbox": [139.6333333328672, 35.8156305162355, 139.63414662576633, 35.81638205898503]}, {"id": "35", "type": "Feature", "properties": {"N13_001": "2023-07-14", "N13_002": "1", "N13_003": "1", "N13_004": "1", "N13_005": 0, "N13_006": "3", "N13_007": "1", "N13_008": "533955", "rosen_name": 298}, "geometry": {"type": "LineString", "coordinates": [[139.6371554362745, 35.81931199625177], [139.63682540037212, 35.81890657917546]]}, "bbox": [139.63682540037212, 35.81890657917546, 139.6371554362745, 35.81931199625177]}, {"id": "36", "type": "Feature", "properties": {"N13_001": "2023-07-14", "N13_002": "1", "N13_003": "1", "N13_004": "2", "N13_005": 1, "N13_006": "3", "N13_007": "1", "N13_008": "533955", "rosen_name": 298}, "geometry": {"type": "LineString", "coordinates": [[139.6371554362745, 35.81931199625177], [139.63785606570502, 35.819922387708175]]}, "bbox": [139.6371554362745, 35.81931199625177, 139.63785606570502, 35.819922387708175]}, {"id": "37", "type": "Feature", "properties": {"N13_001": "2023-07-14", "N13_002": "1", "N13_003": "1", "N13_004": "2", "N13_005": 0, "N13_006": "3", "N13_007": "1", "N13_008": "533955", "rosen_name": 298}, "geometry": {"type": "LineString", "coordinates": [[139.63785606570502, 35.819922387708175], [139.6381036283799, 35.82015334260285]]}, "bbox": [139.63785606570502, 35.819922387708175, 139.6381036283799, 35.82015334260285]}, {"id": "38", "type": "Feature", "properties": {"N13_001": "2023-07-14", "N13_002": "1", "N13_003": "1", "N13_004": "2", "N13_005": 1, "N13_006": "3", "N13_007": "1", "N13_008": "533955", "rosen_name": 298}, "geometry": {"type": "LineString", "coordinates": [[139.6376206672602, 35.820177916577734], [139.63736697210823, 35.81996213864193], [139.63715522223595, 35.819790610948075], [139.63693494409256, 35.819622083392574]]}, "bbox": [139.63693494409256, 35.819622083392574, 139.6376206672602, 35.820177916577734]}, {"id": "39", "type": "Feature", "properties": {"N13_001": "2023-07-14", "N13_002": "1", "N13_003": "1", "N13_004": "1", "N13_005": 0, "N13_006": "3", "N13_007": "1", "N13_008": "533955", "rosen_name": 298}, "geometry": {"type": "LineString", "coordinates": [[139.6381036283799, 35.82015334260285], [139.63864988918124, 35.82067191687565], [139.63893722167563, 35.820923693773636], [139.63902619880025, 35.8210758950367]]}, "bbox": [139.6381036283799, 35.82015334260285, 139.63902619880025, 35.8210758950367]}, {"id": "40", "type": "Feature", "properties": {"N13_001": "2023-07-14", "N13_002": "1", "N13_003": "1", "N13_004": "2", "N13_005": 0, "N13_006": "3", "N13_007": "1", "N13_008": "533955", "rosen_name": 298}, "geometry": {"type": "LineString", "coordinates": [[139.63783944173701, 35.820370749210895], [139.6376206672602, 35.820177916577734]]}, "bbox": [139.6376206672602, 35.820177916577734, 139.63783944173701, 35.820370749210895]}, {"id": "41", "type": "Feature", "properties": {"N13_001": "2023-07-14", "N13_002": "1", "N13_003": "1", "N13_004": "1", "N13_005": 0, "N13_006": "3", "N13_007": "1", "N13_008": "533955", "rosen_name": 298}, "geometry": {"type": "LineString", "coordinates": [[139.63902619880025, 35.8210758950367], [139.63888324976233, 35.82105608297201], [139.6385904997519, 35.82085872225241], [139.63828716831836, 35.820683458774795], [139.63808022532237, 35.82054459355834], [139.63783944173701, 35.820370749210895]]}, "bbox": [139.63783944173701, 35.820370749210895, 139.63902619880025, 35.8210758950367]}, {"id": "42", "type": "Feature", "properties": {"N13_001": "2023-07-14", "N13_002": "1", "N13_003": "1", "N13_004": "1", "N13_005": 0, "N13_006": "3", "N13_007": "1", "N13_008": "533955", "rosen_name": 17}, "geometry": {"type": "LineString", "coordinates": [[139.64160252443708, 35.822576637801774], [139.64152407567576, 35.82268410139034]]}, "bbox": [139.64152407567576, 35.822576637801774, 139.64160252443708, 35.82268410139034]}, {"id": "43", "type": "Feature", "properties": {"N13_001": "2023-07-14", "N13_002": "1", "N13_003": "1", "N13_004": "1", "N13_005": 0, "N13_006": "3", "N13_007": "1", "N13_008": "533955", "rosen_name": 298}, "geometry": {"type": "LineString", "coordinates": [[139.63682540037212, 35.81890657917546], [139.63614891683926, 35.818237871181]]}, "bbox": [139.63614891683926, 35.818237871181, 139.63682540037212, 35.81890657917546]}, {"id": "44", "type": "Feature", "properties": {"N13_001": "2023-07-14", "N13_002": "1", "N13_003": "1", "N13_004": "1", "N13_005": 0, "N13_006": "3", "N13_007": "1", "N13_008": "533955", "rosen_name": 298}, "geometry": {"type": "LineString", "coordinates": [[139.63693494409256, 35.819622083392574], [139.63641761088422, 35.819165888794885], [139.63589339426494, 35.818702659700136]]}, "bbox": [139.63589339426494, 35.818702659700136, 139.63693494409256, 35.819622083392574]}, {"id": "45", "type": "Feature", "properties": {"N13_001": "2023-07-14", "N13_002": "1", "N13_003": "1", "N13_004": "1", "N13_005": 0, "N13_006": "3", "N13_007": "1", "N13_008": "533955", "rosen_name": 17}, "geometry": {"type": "LineString", "coordinates": [[139.64051018719556, 35.823852756000065], [139.64011886159642, 35.824298327805764]]}, "bbox": [139.64011886159642, 35.823852756000065, 139.64051018719556, 35.824298327805764]}, {"id": "46", "type": "Feature", "properties": {"N13_001": "2023-07-14", "N13_002": "1", "N13_003": "1", "N13_004": "1", "N13_005": 0, "N13_006": "3", "N13_007": "1", "N13_008": "533955", "rosen_name": 298}, "geometry": {"type": "LineString", "coordinates": [[139.63589339426494, 35.818702659700136], [139.63561198470552, 35.81849921506688], [139.635376930701, 35.81829699171294]]}, "bbox": [139.635376930701, 35.81829699171294, 139.63589339426494, 35.818702659700136]}, {"id": "47", "type": "Feature", "properties": {"N13_001": "2023-07-14", "N13_002": "1", "N13_003": "1", "N13_004": "1", "N13_005": 0, "N13_006": "3", "N13_007": "1", "N13_008": "533955", "rosen_name": 298}, "geometry": {"type": "LineString", "coordinates": [[139.6347176961649, 35.81684047760615], [139.63498263014446, 35.81704831093094], [139.6353045352763, 35.81735216666931], [139.63588905683469, 35.81797198931599], [139.63614891683926, 35.818237871181]]}, "bbox": [139.6347176961649, 35.81684047760615, 139.63614891683926, 35.818237871181]}, {"id": "48", "type": "Feature", "properties": {"N13_001": "2023-07-14", "N13_002": "1", "N13_003": "1", "N13_004": "1", "N13_005": 0, "N13_006": "3", "N13_007": "1", "N13_008": "533955", "rosen_name": 17}, "geometry": {"type": "LineString", "coordinates": [[139.6389411688001, 35.82628850141339], [139.6386459681371, 35.82660414096847]]}, "bbox": [139.6386459681371, 35.82628850141339, 139.6389411688001, 35.82660414096847]}, {"id": "49", "type": "Feature", "properties": {"N13_001": "2023-07-14", "N13_002": "1", "N13_003": "1", "N13_004": "1", "N13_005": 0, "N13_006": "3", "N13_007": "1", "N13_008": "533955", "rosen_name": 17}, "geometry": {"type": "LineString", "coordinates": [[139.63532382933147, 35.82989971020362], [139.63641097928348, 35.82864298318731], [139.63708729734105, 35.8278832790902]]}, "bbox": [139.63532382933147, 35.8278832790902, 139.63708729734105, 35.82989971020362]}, {"id": "50", "type": "Feature", "properties": {"N13_001": "2023-07-14", "N13_002": "1", "N13_003": "1", "N13_004": "1", "N13_005": 0, "N13_006": "3", "N13_007": "1", "N13_008": "533955", "rosen_name": 17}, "geometry": {"type": "LineString", "coordinates": [[139.63708729734105, 35.8278832790902], [139.6377917192126, 35.827041442608675]]}, "bbox": [139.63708729734105, 35.827041442608675, 139.6377917192126, 35.8278832790902]}, {"id": "51", "type": "Feature", "properties": {"N13_001": "2023-07-14", "N13_002": "1", "N13_003": "1", "N13_004": "1", "N13_005": 0, "N13_006": "3", "N13_007": "1", "N13_008": "533955", "rosen_name": 17}, "geometry": {"type": "LineString", "coordinates": [[139.6386459681371, 35.82660414096847], [139.6381873282827, 35.82711672485715]]}, "bbox": [139.6381873282827, 35.82660414096847, 139.6386459681371, 35.82711672485715]}, {"id": "52", "type": "Feature", "properties": {"N13_001": "2023-07-14", "N13_002": "1", "N13_003": "1", "N13_004": "1", "N13_005": 0, "N13_006": "3", "N13_007": "1", "N13_008": "533955", "rosen_name": 17}, "geometry": {"type": "LineString", "coordinates": [[139.63900321662527, 35.82559452966399], [139.6387948940693, 35.8258492608349]]}, "bbox": [139.6387948940693, 35.82559452966399, 139.63900321662527, 35.8258492608349]}, {"id": "53", "type": "Feature", "properties": {"N13_001": "2023-07-14", "N13_002": "1", "N13_003": "1", "N13_004": "1", "N13_005": 0, "N13_006": "3", "N13_007": "1", "N13_008": "533955", "rosen_name": 17}, "geometry": {"type": "LineString", "coordinates": [[139.63461049517844, 35.830729300616895], [139.63532382933147, 35.82989971020362]]}, "bbox": [139.63461049517844, 35.82989971020362, 139.63532382933147, 35.830729300616895]}, {"id": "54", "type": "Feature", "properties": {"N13_001": "2023-07-14", "N13_002": "1", "N13_003": "1", "N13_004": "1", "N13_005": 0, "N13_006": "3", "N13_007": "1", "N13_008": "533955", "rosen_name": 17}, "geometry": {"type": "LineString", "coordinates": [[139.63741775592484, 35.82798966888828], [139.6381873282827, 35.82711672485715]]}, "bbox": [139.63741775592484, 35.82711672485715, 139.6381873282827, 35.82798966888828]}, {"id": "55", "type": "Feature", "properties": {"N13_001": "2023-07-14", "N13_002": "1", "N13_003": "1", "N13_004": "1", "N13_005": 0, "N13_006": "3", "N13_007": "1", "N13_008": "533955", "rosen_name": 17}, "geometry": {"type": "LineString", "coordinates": [[139.6356228251334, 35.830069306153746], [139.63741775592484, 35.82798966888828]]}, "bbox": [139.6356228251334, 35.82798966888828, 139.63741775592484, 35.830069306153746]}, {"id": "56", "type": "Feature", "properties": {"N13_001": "2023-07-14", "N13_002": "1", "N13_003": "1", "N13_004": "1", "N13_005": 0, "N13_006": "3", "N13_007": "1", "N13_008": "533955", "rosen_name": 17}, "geometry": {"type": "LineString", "coordinates": [[139.634964790293, 35.83082014203609], [139.6356228251334, 35.830069306153746]]}, "bbox": [139.634964790293, 35.830069306153746, 139.6356228251334, 35.83082014203609]}, {"id": "57", "type": "Feature", "properties": {"N13_001": "2023-07-14", "N13_002": "1", "N13_003": "1", "N13_004": "1", "N13_005": 0, "N13_006": "3", "N13_007": "1", "N13_008": "533955", "rosen_name": 17}, "geometry": {"type": "LineString", "coordinates": [[139.63349453904198, 35.832775243882566], [139.6336676657304, 35.83254539155672]]}, "bbox": [139.63349453904198, 35.83254539155672, 139.6336676657304, 35.832775243882566]}, {"id": "58", "type": "Feature", "properties": {"N13_001": "2023-07-14", "N13_002": "1", "N13_003": "1", "N13_004": "1", "N13_005": 0, "N13_006": "3", "N13_007": "1", "N13_008": "533955", "rosen_name": 17}, "geometry": {"type": "LineString", "coordinates": [[139.6336676657304, 35.83254539155672], [139.634964790293, 35.83082014203609]]}, "bbox": [139.6336676657304, 35.83082014203609, 139.634964790293, 35.83254539155672]}, {"id": "59", "type": "Feature", "properties": {"N13_001": "2023-07-14", "N13_002": "1", "N13_003": "1", "N13_004": "1", "N13_005": 0, "N13_006": "3", "N13_007": "1", "N13_008": "533955", "rosen_name": 17}, "geometry": {"type": "LineString", "coordinates": [[139.6333333328672, 35.8329792739745], [139.63349453904198, 35.832775243882566]]}, "bbox": [139.6333333328672, 35.832775243882566, 139.63349453904198, 35.8329792739745]}, {"id": "60", "type": "Feature", "properties": {"N13_001": "2023-07-14", "N13_002": "1", "N13_003": "1", "N13_004": "1", "N13_005": 0, "N13_006": "3", "N13_007": "1", "N13_008": "533955", "rosen_name": 17}, "geometry": {"type": "LineString", "coordinates": [[139.6387948940693, 35.8258492608349], [139.63859590197944, 35.82609258140769]]}, "bbox": [139.63859590197944, 35.8258492608349, 139.6387948940693, 35.82609258140769]}, {"id": "61", "type": "Feature", "properties": {"N13_001": "2023-07-14", "N13_002": "1", "N13_003": "1", "N13_004": "1", "N13_005": 0, "N13_006": "3", "N13_007": "1", "N13_008": "533955", "rosen_name": 17}, "geometry": {"type": "LineString", "coordinates": [[139.63917621920734, 35.82603327291736], [139.6389411688001, 35.82628850141339]]}, "bbox": [139.6389411688001, 35.82603327291736, 139.63917621920734, 35.82628850141339]}, {"id": "62", "type": "Feature", "properties": {"N13_001": "2023-07-14", "N13_002": "1", "N13_003": "1", "N13_004": "1", "N13_005": 0, "N13_006": "3", "N13_007": "1", "N13_008": "533955", "rosen_name": 17}, "geometry": {"type": "LineString", "coordinates": [[139.6391276036561, 35.82576460675136], [139.63901272965393, 35.82581569184089], [139.63891108917562, 35.825839870114066], [139.6387948940693, 35.8258492608349]]}, "bbox": [139.6387948940693, 35.82576460675136, 139.6391276036561, 35.8258492608349]}, {"id": "63", "type": "Feature", "properties": {"N13_001": "2023-07-14", "N13_002": "1", "N13_003": "1", "N13_004": "1", "N13_005": 0, "N13_006": "3", "N13_007": "1", "N13_008": "533955", "rosen_name": 17}, "geometry": {"type": "LineString", "coordinates": [[139.6391276036561, 35.82576460675136], [139.63912272393475, 35.82587327812945], [139.63913320013728, 35.82594686065926], [139.63917621920734, 35.82603327291736]]}, "bbox": [139.63912272393475, 35.82576460675136, 139.63917621920734, 35.82603327291736]}, {"id": "64", "type": "Feature", "properties": {"N13_001": "2023-07-14", "N13_002": "1", "N13_003": "1", "N13_004": "1", "N13_005": 0, "N13_006": "3", "N13_007": "1", "N13_008": "533955", "rosen_name": 17}, "geometry": {"type": "LineString", "coordinates": [[139.6435824367802, 35.82110319485673], [139.64472454789973, 35.81983005881034]]}, "bbox": [139.6435824367802, 35.81983005881034, 139.64472454789973, 35.82110319485673]}, {"id": "65", "type": "Feature", "properties": {"N13_001": "2023-07-14", "N13_002": "1", "N13_003": "1", "N13_004": "1", "N13_005": 0, "N13_006": "3", "N13_007": "1", "N13_008": "533955", "rosen_name": 17}, "geometry": {"type": "LineString", "coordinates": [[139.64472454789973, 35.81983005881034], [139.64507692835775, 35.81935586787915]]}, "bbox": [139.64472454789973, 35.81935586787915, 139.64507692835775, 35.81983005881034]}, {"id": "66", "type": "Feature", "properties": {"N13_001": "2023-07-14", "N13_002": "1", "N13_003": "1", "N13_004": "1", "N13_005": 0, "N13_006": "3", "N13_007": "1", "N13_008": "533955", "rosen_name": 17}, "geometry": {"type": "LineString", "coordinates": [[139.64535339074655, 35.81823123238564], [139.64486440506846, 35.81874751608518]]}, "bbox": [139.64486440506846, 35.81823123238564, 139.64535339074655, 35.81874751608518]}, {"id": "67", "type": "Feature", "properties": {"N13_001": "2023-07-14", "N13_002": "1", "N13_003": "1", "N13_004": "1", "N13_005": 0, "N13_006": "3", "N13_007": "1", "N13_008": "533955", "rosen_name": 17}, "geometry": {"type": "LineString", "coordinates": [[139.64486440506846, 35.81874751608518], [139.6441653692366, 35.819489711281335], [139.64353086335882, 35.82027298031397]]}, "bbox": [139.64353086335882, 35.81874751608518, 139.64486440506846, 35.82027298031397]}, {"id": "68", "type": "Feature", "properties": {"N13_001": "2023-07-14", "N13_002": "1", "N13_003": "1", "N13_004": "1", "N13_005": 0, "N13_006": "3", "N13_007": "1", "N13_008": "533955", "rosen_name": 17}, "geometry": {"type": "LineString", "coordinates": [[139.64353086335882, 35.82027298031397], [139.6433642882315, 35.820504889389326]]}, "bbox": [139.6433642882315, 35.82027298031397, 139.64353086335882, 35.820504889389326]}, {"id": "69", "type": "Feature", "properties": {"N13_001": "2023-07-14", "N13_002": "1", "N13_003": "1", "N13_004": "1", "N13_005": 0, "N13_006": "3", "N13_007": "1", "N13_008": "533955", "rosen_name": 17}, "geometry": {"type": "LineString", "coordinates": [[139.64201600303625, 35.82279000555445], [139.64188863205493, 35.822901211222074]]}, "bbox": [139.64188863205493, 35.82279000555445, 139.64201600303625, 35.822901211222074]}, {"id": "70", "type": "Feature", "properties": {"N13_001": "2023-07-14", "N13_002": "1", "N13_003": "1", "N13_004": "1", "N13_005": 0, "N13_006": "3", "N13_007": "1", "N13_008": "533955", "rosen_name": 298}, "geometry": {"type": "LineString", "coordinates": [[139.64248470630434, 35.823016483623974], [139.64266354818437, 35.82310192461432]]}, "bbox": [139.64248470630434, 35.823016483623974, 139.64266354818437, 35.82310192461432]}, {"id": "71", "type": "Feature", "properties": {"N13_001": "2023-07-14", "N13_002": "1", "N13_003": "1", "N13_004": "1", "N13_005": 0, "N13_006": "3", "N13_007": "1", "N13_008": "533955", "rosen_name": 17}, "geometry": {"type": "LineString", "coordinates": [[139.64333483543453, 35.82130973585578], [139.64340066940554, 35.82124630037663], [139.6435824367802, 35.82110319485673]]}, "bbox": [139.64333483543453, 35.82110319485673, 139.6435824367802, 35.82130973585578]}, {"id": "72", "type": "Feature", "properties": {"N13_001": "2023-07-14", "N13_002": "1", "N13_003": "1", "N13_004": "1", "N13_005": 0, "N13_006": "2", "N13_007": "1", "N13_008": "533955", "rosen_name": 17}, "geometry": {"type": "LineString", "coordinates": [[139.64413177416225, 35.82000980091175], [139.64403662139318, 35.82001904324443], [139.64395330280286, 35.82005802255986], [139.6438768343486, 35.82011793809255], [139.6436098229351, 35.82037849956828], [139.64353649041686, 35.82044032076436], [139.64345546239986, 35.82048409076833], [139.6433642882315, 35.820504889389326]]}, "bbox": [139.6433642882315, 35.82000980091175, 139.64413177416225, 35.820504889389326]}, {"id": "73", "type": "Feature", "properties": {"N13_001": "2023-07-14", "N13_002": "1", "N13_003": "1", "N13_004": "1", "N13_005": 0, "N13_006": "4", "N13_007": "1", "N13_008": "533955", "rosen_name": 17}, "geometry": {"type": "LineString", "coordinates": [[139.64413177416225, 35.82000980091175], [139.64399756023943, 35.82016529189485], [139.64369715879707, 35.82051372522841], [139.6436093193148, 35.820614103058574]]}, "bbox": [139.6436093193148, 35.82000980091175, 139.64413177416225, 35.820614103058574]}, {"id": "74", "type": "Feature", "properties": {"N13_001": "2023-07-14", "N13_002": "1", "N13_003": "1", "N13_004": "1", "N13_005": 0, "N13_006": "2", "N13_007": "1", "N13_008": "533955", "rosen_name": 17}, "geometry": {"type": "LineString", "coordinates": [[139.6436093193148, 35.820614103058574], [139.64362327409503, 35.82072058818477], [139.64359631511797, 35.82080242559164], [139.64349752369196, 35.82095017790857], [139.64334407057254, 35.82116137469785], [139.64332017378717, 35.82125269905299], [139.64333483543453, 35.82130973585578]]}, "bbox": [139.64332017378717, 35.820614103058574, 139.64362327409503, 35.82130973585578]}, {"id": "75", "type": "Feature", "properties": {"N13_001": "2023-07-14", "N13_002": "1", "N13_003": "1", "N13_004": "1", "N13_005": 0, "N13_006": "4", "N13_007": "1", "N13_008": "533955", "rosen_name": 17}, "geometry": {"type": "LineString", "coordinates": [[139.6436093193148, 35.820614103058574], [139.6434409113691, 35.82080654898323], [139.64316455869755, 35.821122920586504], [139.6424469491675, 35.821946435179996], [139.64202504661876, 35.82243059689472]]}, "bbox": [139.64202504661876, 35.820614103058574, 139.6436093193148, 35.82243059689472]}, {"id": "76", "type": "Feature", "properties": {"N13_001": "2022-03-23", "N13_002": "1", "N13_003": "1", "N13_004": "2", "N13_005": 1, "N13_006": "3", "N13_007": "1", "N13_008": "533955", "rosen_name": 298}, "geometry": {"type": "LineString", "coordinates": [[139.6333333328672, 35.8156305162355], [139.62936774712398, 35.81152485478839], [139.6287083408174, 35.8108696905839], [139.62804686607024, 35.81022916374508], [139.62695637693548, 35.80910822176719], [139.62624035560805, 35.808333332617394], [139.62539428331968, 35.80744191561206], [139.62504495606004, 35.80708854410119]]}, "bbox": [139.62504495606004, 35.80708854410119, 139.6333333328672, 35.8156305162355]}, {"id": "77", "type": "Feature", "properties": {"N13_001": "2022-03-23", "N13_002": "1", "N13_003": "1", "N13_004": "2", "N13_005": 1, "N13_006": "3", "N13_007": "1", "N13_008": "533955", "rosen_name": 298}, "geometry": {"type": "LineString", "coordinates": [[139.6333333328672, 35.81626306968508], [139.63140408293225, 35.8143706101157], [139.6289192246427, 35.811787330920765], [139.62805034015128, 35.81085938615189], [139.62660537873546, 35.80930199059458], [139.626393796137, 35.809075218446765], [139.62564683903054, 35.808333332617394], [139.62499999985027, 35.807632167190945]]}, "bbox": [139.62499999985027, 35.807632167190945, 139.6333333328672, 35.81626306968508]}, {"id": "78", "type": "Feature", "properties": {"N13_001": "2023-07-14", "N13_002": "1", "N13_003": "1", "N13_004": "1", "N13_005": 0, "N13_006": "3", "N13_007": "1", "N13_008": "533955", "rosen_name": 298}, "geometry": {"type": "LineString", "coordinates": [[139.6343766138898, 35.81659458497228], [139.6344486109149, 35.81666666743291], [139.6347176961649, 35.81684047760615]]}, "bbox": [139.6343766138898, 35.81659458497228, 139.6347176961649, 35.81684047760615]}, {"id": "79", "type": "Feature", "properties": {"N13_001": "2023-07-14", "N13_002": "1", "N13_003": "1", "N13_004": "1", "N13_005": 0, "N13_006": "3", "N13_007": "1", "N13_008": "533955", "rosen_name": 298}, "geometry": {"type": "LineString", "coordinates": [[139.63902619880025, 35.8210758950367], [139.6396297500131, 35.82147386122989], [139.64026100034505, 35.821868417193855], [139.64106674973084, 35.822300388552264], [139.6415807779307, 35.82256541696057], [139.64160252443708, 35.822576637801774]]}, "bbox": [139.63902619880025, 35.8210758950367, 139.64160252443708, 35.822576637801774]}, {"id": "80", "type": "Feature", "properties": {"N13_001": "2023-07-14", "N13_002": "1", "N13_003": "1", "N13_004": "1", "N13_005": 0, "N13_006": "3", "N13_007": "1", "N13_008": "533955", "rosen_name": 298}, "geometry": {"type": "LineString", "coordinates": [[139.64160252443708, 35.822576637801774], [139.6416666667834, 35.82261191730629], [139.64167097183804, 35.822614110752795], [139.64181850022374, 35.822689277888], [139.64201600303625, 35.82279000555445]]}, "bbox": [139.64160252443708, 35.822576637801774, 139.64201600303625, 35.82279000555445]}, {"id": "81", "type": "Feature", "properties": {"N13_001": "2023-07-14", "N13_002": "1", "N13_003": "1", "N13_004": "1", "N13_005": 0, "N13_006": "3", "N13_007": "1", "N13_008": "533955", "rosen_name": 17}, "geometry": {"type": "LineString", "coordinates": [[139.64167825185007, 35.82247490829053], [139.6416666667834, 35.82249373379892], [139.64160252443708, 35.822576637801774]]}, "bbox": [139.64160252443708, 35.82247490829053, 139.64167825185007, 35.822576637801774]}, {"id": "82", "type": "Feature", "properties": {"N13_001": "2023-07-14", "N13_002": "1", "N13_003": "1", "N13_004": "1", "N13_005": 0, "N13_006": "3", "N13_007": "1", "N13_008": "533955", "rosen_name": 298}, "geometry": {"type": "LineString", "coordinates": [[139.635376930701, 35.81829699171294], [139.63431572529066, 35.81721169706236], [139.63382280957524, 35.816726484040146], [139.6337637106269, 35.81666666743291], [139.63375082963728, 35.81665458683989]]}, "bbox": [139.63375082963728, 35.81665458683989, 139.635376930701, 35.81829699171294]}, {"id": "83", "type": "Feature", "properties": {"N13_001": "2023-07-14", "N13_002": "1", "N13_003": "1", "N13_004": "1", "N13_005": 0, "N13_006": "3", "N13_007": "1", "N13_008": "533955", "rosen_name": 17}, "geometry": {"type": "LineString", "coordinates": [[139.64152407567576, 35.82268410139034], [139.6414757371158, 35.82275022584241], [139.6411854593416, 35.823085322229986], [139.64051018719556, 35.823852756000065]]}, "bbox": [139.64051018719556, 35.82268410139034, 139.64152407567576, 35.823852756000065]}, {"id": "84", "type": "Feature", "properties": {"N13_001": "2023-07-14", "N13_002": "1", "N13_003": "1", "N13_004": "1", "N13_005": 0, "N13_006": "3", "N13_007": "1", "N13_008": "533955", "rosen_name": 17}, "geometry": {"type": "LineString", "coordinates": [[139.64011886159642, 35.824298327805764], [139.63950802587487, 35.82499999955053], [139.63900321662527, 35.82559452966399]]}, "bbox": [139.63900321662527, 35.824298327805764, 139.64011886159642, 35.82559452966399]}, {"id": "85", "type": "Feature", "properties": {"N13_001": "2023-07-14", "N13_002": "1", "N13_003": "1", "N13_004": "1", "N13_005": 0, "N13_006": "3", "N13_007": "1", "N13_008": "533955", "rosen_name": 17}, "geometry": {"type": "LineString", "coordinates": [[139.64086610918378, 35.82406772274737], [139.64013297285862, 35.824943633641965], [139.64008573506885, 35.82499999955053], [139.64005650440436, 35.8250419628165]]}, "bbox": [139.64005650440436, 35.82406772274737, 139.64086610918378, 35.8250419628165]}, {"id": "86", "type": "Feature", "properties": {"N13_001": "2023-07-14", "N13_002": "1", "N13_003": "1", "N13_004": "3", "N13_005": 0, "N13_006": "4", "N13_007": "1", "N13_008": "533955", "rosen_name": 17}, "geometry": {"type": "LineString", "coordinates": [[139.64202504661876, 35.82243059689472], [139.6416666667834, 35.82284180110838], [139.6415821907657, 35.822938728239876]]}, "bbox": [139.6415821907657, 35.82243059689472, 139.64202504661876, 35.822938728239876]}, {"id": "87", "type": "Feature", "properties": {"N13_001": "2023-07-14", "N13_002": "1", "N13_003": "1", "N13_004": "1", "N13_005": 0, "N13_006": "4", "N13_007": "1", "N13_008": "533955", "rosen_name": 17}, "geometry": {"type": "LineString", "coordinates": [[139.6415821907657, 35.822938728239876], [139.6407407490865, 35.8239035002465], [139.64007481729914, 35.824675054710156], [139.6397923231574, 35.82499999955053], [139.6391276036561, 35.82576460675136]]}, "bbox": [139.6391276036561, 35.822938728239876, 139.6415821907657, 35.82576460675136]}, {"id": "88", "type": "Feature", "properties": {"N13_001": "2023-07-14", "N13_002": "1", "N13_003": "1", "N13_004": "1", "N13_005": 0, "N13_006": "3", "N13_007": "1", "N13_008": "533955", "rosen_name": 17}, "geometry": {"type": "LineString", "coordinates": [[139.6333333328672, 35.8321828892291], [139.63333951120967, 35.83217585743006], [139.63351342660349, 35.83198077739115], [139.634321889244, 35.83104536105475], [139.63461049517844, 35.830729300616895]]}, "bbox": [139.6333333328672, 35.830729300616895, 139.63461049517844, 35.8321828892291]}, {"id": "89", "type": "Feature", "properties": {"N13_001": "2023-07-14", "N13_002": "1", "N13_003": "1", "N13_004": "1", "N13_005": 0, "N13_006": "3", "N13_007": "1", "N13_008": "533955", "rosen_name": 17}, "geometry": {"type": "LineString", "coordinates": [[139.64005650440436, 35.8250419628165], [139.63931086840205, 35.825887065635754], [139.63917621920734, 35.82603327291736]]}, "bbox": [139.63917621920734, 35.8250419628165, 139.64005650440436, 35.82603327291736]}, {"id": "90", "type": "Feature", "properties": {"N13_001": "2023-07-14", "N13_002": "1", "N13_003": "1", "N13_004": "1", "N13_005": 0, "N13_006": "3", "N13_007": "1", "N13_008": "533955", "rosen_name": 17}, "geometry": {"type": "LineString", "coordinates": [[139.63859590197944, 35.82609258140769], [139.63786705182315, 35.82695208597016], [139.6377917192126, 35.827041442608675]]}, "bbox": [139.6377917192126, 35.82609258140769, 139.63859590197944, 35.827041442608675]}, {"id": "91", "type": "Feature", "properties": {"N13_001": "2023-07-14", "N13_002": "1", "N13_003": "1", "N13_004": "1", "N13_005": 0, "N13_006": "4", "N13_007": "1", "N13_008": "533955", "rosen_name": 17}, "geometry": {"type": "LineString", "coordinates": [[139.64744895770343, 35.816066426624445], [139.6473538939672, 35.8162119684078], [139.64721681120704, 35.81641091103489], [139.6470611160778, 35.816619848727214], [139.64702359006685, 35.81666666743291], [139.64685045618376, 35.81688267199786], [139.646594331963, 35.817183123802295], [139.6458605643138, 35.81801654712609], [139.64526525898464, 35.81871006561721], [139.6448526554259, 35.81918502816666], [139.6443747529927, 35.81972830142013], [139.64413177416225, 35.82000980091175]]}, "bbox": [139.64413177416225, 35.816066426624445, 139.64744895770343, 35.82000980091175]}, {"id": "92", "type": "Feature", "properties": {"N13_001": "2023-07-14", "N13_002": "1", "N13_003": "1", "N13_004": "1", "N13_005": 0, "N13_006": "3", "N13_007": "1", "N13_008": "533955", "rosen_name": 298}, "geometry": {"type": "LineString", "coordinates": [[139.64266354818437, 35.82310192461432], [139.64311894418415, 35.823335278000854], [139.64428811140738, 35.82389291702469], [139.6447026673943, 35.82409911088541], [139.64482891692114, 35.82416191683916], [139.6449411199369, 35.82421806691042]]}, "bbox": [139.64266354818437, 35.82310192461432, 139.6449411199369, 35.82421806691042]}, {"id": "93", "type": "Feature", "properties": {"N13_001": "2023-07-14", "N13_002": "1", "N13_003": "1", "N13_004": "1", "N13_005": 0, "N13_006": "3", "N13_007": "1", "N13_008": "533955", "rosen_name": 17}, "geometry": {"type": "LineString", "coordinates": [[139.64201600303625, 35.82279000555445], [139.64214307274483, 35.82264896667664], [139.6422097116091, 35.8225638584355], [139.64232437337137, 35.82240834406997]]}, "bbox": [139.64201600303625, 35.82240834406997, 139.64232437337137, 35.82279000555445]}, {"id": "94", "type": "Feature", "properties": {"N13_001": "2023-07-14", "N13_002": "1", "N13_003": "1", "N13_004": "1", "N13_005": 0, "N13_006": "3", "N13_007": "1", "N13_008": "533955", "rosen_name": 17}, "geometry": {"type": "LineString", "coordinates": [[139.64232437337137, 35.82240834406997], [139.64236867307602, 35.82236244896802], [139.64267576277643, 35.822002474634644], [139.643088569582, 35.8215470327695], [139.64333483543453, 35.82130973585578]]}, "bbox": [139.64232437337137, 35.82130973585578, 139.64333483543453, 35.82240834406997]}, {"id": "95", "type": "Feature", "properties": {"N13_001": "2023-07-14", "N13_002": "1", "N13_003": "1", "N13_004": "1", "N13_005": 0, "N13_006": "3", "N13_007": "1", "N13_008": "533955", "rosen_name": 17}, "geometry": {"type": "LineString", "coordinates": [[139.64188863205493, 35.822901211222074], [139.64183107904125, 35.82296165105953], [139.6416666667834, 35.82314790425255], [139.6416341895664, 35.8231923091779], [139.64086610918378, 35.82406772274737]]}, "bbox": [139.64086610918378, 35.822901211222074, 139.64188863205493, 35.82406772274737]}, {"id": "96", "type": "Feature", "properties": {"N13_001": "2023-07-14", "N13_002": "1", "N13_003": "1", "N13_004": "1", "N13_005": 0, "N13_006": "3", "N13_007": "1", "N13_008": "533955", "rosen_name": 298}, "geometry": {"type": "LineString", "coordinates": [[139.64201600303625, 35.82279000555445], [139.64209177811324, 35.82282561061362], [139.64248470630434, 35.823016483623974]]}, "bbox": [139.64201600303625, 35.82279000555445, 139.64248470630434, 35.823016483623974]}, {"id": "97", "type": "Feature", "properties": {"N13_001": "2023-07-14", "N13_002": "1", "N13_003": "1", "N13_004": "1", "N13_005": 0, "N13_006": "3", "N13_007": "1", "N13_008": "533955", "rosen_name": 17}, "geometry": {"type": "LineString", "coordinates": [[139.6433642882315, 35.820504889389326], [139.6432372050332, 35.820681818411344], [139.64302961182727, 35.820932174380516], [139.64247529310046, 35.821576151018746]]}, "bbox": [139.64247529310046, 35.820504889389326, 139.6433642882315, 35.821576151018746]}, {"id": "98", "type": "Feature", "properties": {"N13_001": "2023-07-14", "N13_002": "1", "N13_003": "1", "N13_004": "1", "N13_005": 0, "N13_006": "3", "N13_007": "1", "N13_008": "533955", "rosen_name": 17}, "geometry": {"type": "LineString", "coordinates": [[139.64247529310046, 35.821576151018746], [139.64222961090798, 35.82184462293117], [139.6419797783443, 35.82212670788141], [139.64177793720216, 35.82234697703154], [139.64167825185007, 35.82247490829053]]}, "bbox": [139.64167825185007, 35.821576151018746, 139.64247529310046, 35.82247490829053]}, {"id": "99", "type": "Feature", "properties": {"N13_001": "2022-03-23", "N13_002": "1", "N13_003": "1", "N13_004": "1", "N13_005": 0, "N13_006": "4", "N13_007": "1", "N13_008": "533964", "rosen_name": 17}, "geometry": {"type": "LineString", "coordinates": [[139.62499999985027, 35.84910267574804], [139.62489414155152, 35.849403452207696]]}, "bbox": [139.62489414155152, 35.84910267574804, 139.62499999985027, 35.849403452207696]}, {"id": "100", "type": "Feature", "properties": {"N13_001": "2022-03-23", "N13_002": "1", "N13_003": "1", "N13_004": "1", "N13_005": 0, "N13_006": "4", "N13_007": "1", "N13_008": "533964", "rosen_name": 17}, "geometry": {"type": "LineString", "coordinates": [[139.62251615060006, 35.85748346329137], [139.62293273006162, 35.85624814643495]]}, "bbox": [139.62251615060006, 35.85624814643495, 139.62293273006162, 35.85748346329137]}, {"id": "101", "type": "Feature", "properties": {"N13_001": "2022-03-23", "N13_002": "1", "N13_003": "1", "N13_004": "1", "N13_005": 0, "N13_006": "4", "N13_007": "1", "N13_008": "533964", "rosen_name": 17}, "geometry": {"type": "LineString", "coordinates": [[139.62293273006162, 35.85624814643495], [139.62323337881753, 35.855350775917714]]}, "bbox": [139.62293273006162, 35.855350775917714, 139.62323337881753, 35.85624814643495]}, {"id": "102", "type": "Feature", "properties": {"N13_001": "2022-03-23", "N13_002": "1", "N13_003": "1", "N13_004": "1", "N13_005": 0, "N13_006": "4", "N13_007": "1", "N13_008": "533964", "rosen_name": 17}, "geometry": {"type": "LineString", "coordinates": [[139.62259060097563, 35.856175208719094], [139.62251697168108, 35.856408250040886]]}, "bbox": [139.62251697168108, 35.856175208719094, 139.62259060097563, 35.856408250040886]}, {"id": "103", "type": "Feature", "properties": {"N13_001": "2022-03-23", "N13_002": "1", "N13_003": "1", "N13_004": "1", "N13_005": 0, "N13_006": "4", "N13_007": "1", "N13_008": "533964", "rosen_name": 17}, "geometry": {"type": "LineString", "coordinates": [[139.62251697168108, 35.856408250040886], [139.62226716699638, 35.85715508304082], [139.62218380613797, 35.857405528042875]]}, "bbox": [139.62218380613797, 35.856408250040886, 139.62251697168108, 35.857405528042875]}, {"id": "104", "type": "Feature", "properties": {"N13_001": "2022-03-23", "N13_002": "1", "N13_003": "1", "N13_004": "1", "N13_005": 0, "N13_006": "4", "N13_007": "1", "N13_008": "533964", "rosen_name": 17}, "geometry": {"type": "LineString", "coordinates": [[139.6238532572222, 35.85345498885681], [139.62420699565655, 35.85243390310234]]}, "bbox": [139.6238532572222, 35.85243390310234, 139.62420699565655, 35.85345498885681]}, {"id": "105", "type": "Feature", "properties": {"N13_001": "2022-03-23", "N13_002": "1", "N13_003": "1", "N13_004": "1", "N13_005": 0, "N13_006": "4", "N13_007": "1", "N13_008": "533964", "rosen_name": 17}, "geometry": {"type": "LineString", "coordinates": [[139.62420699565655, 35.85243390310234], [139.62458579909548, 35.85128959583835]]}, "bbox": [139.62420699565655, 35.85128959583835, 139.62458579909548, 35.85243390310234]}, {"id": "106", "type": "Feature", "properties": {"N13_001": "2022-03-23", "N13_002": "1", "N13_003": "1", "N13_004": "1", "N13_005": 0, "N13_006": "4", "N13_007": "1", "N13_008": "533964", "rosen_name": 17}, "geometry": {"type": "LineString", "coordinates": [[139.6243001393401, 35.85118769365732], [139.62390338903037, 35.852364999745134]]}, "bbox": [139.62390338903037, 35.85118769365732, 139.6243001393401, 35.852364999745134]}, {"id": "107", "type": "Feature", "properties": {"N13_001": "2022-03-23", "N13_002": "1", "N13_003": "1", "N13_004": "1", "N13_005": 0, "N13_006": "4", "N13_007": "1", "N13_008": "533964", "rosen_name": 17}, "geometry": {"type": "LineString", "coordinates": [[139.62390338903037, 35.852364999745134], [139.6235522631266, 35.85336327779322]]}, "bbox": [139.6235522631266, 35.852364999745134, 139.62390338903037, 35.85336327779322]}, {"id": "108", "type": "Feature", "properties": {"N13_001": "2022-03-23", "N13_002": "1", "N13_003": "1", "N13_004": "1", "N13_005": 0, "N13_006": "4", "N13_007": "1", "N13_008": "533964", "rosen_name": 17}, "geometry": {"type": "LineString", "coordinates": [[139.62339289606552, 35.853821112754304], [139.6231863946366, 35.85441616987049]]}, "bbox": [139.6231863946366, 35.853821112754304, 139.62339289606552, 35.85441616987049]}, {"id": "109", "type": "Feature", "properties": {"N13_001": "2022-03-23", "N13_002": "1", "N13_003": "1", "N13_004": "1", "N13_005": 0, "N13_006": "4", "N13_007": "1", "N13_008": "533964", "rosen_name": 17}, "geometry": {"type": "LineString", "coordinates": [[139.6235522631266, 35.85336327779322], [139.62339289606552, 35.853821112754304]]}, "bbox": [139.62339289606552, 35.85336327779322, 139.6235522631266, 35.853821112754304]}, {"id": "110", "type": "Feature", "properties": {"N13_001": "2022-03-23", "N13_002": "1", "N13_003": "1", "N13_004": "1", "N13_005": 0, "N13_006": "4", "N13_007": "1", "N13_008": "533964", "rosen_name": 17}, "geometry": {"type": "LineString", "coordinates": [[139.62289604042007, 35.85527190087771], [139.6227320283606, 35.855778527657094], [139.62259060097563, 35.856175208719094]]}, "bbox": [139.62259060097563, 35.85527190087771, 139.62289604042007, 35.856175208719094]}, {"id": "111", "type": "Feature", "properties": {"N13_001": "2022-03-23", "N13_002": "1", "N13_003": "1", "N13_004": "1", "N13_005": 0, "N13_006": "4", "N13_007": "1", "N13_008": "533964", "rosen_name": 17}, "geometry": {"type": "LineString", "coordinates": [[139.6231863946366, 35.85441616987049], [139.62289604042007, 35.85527190087771]]}, "bbox": [139.62289604042007, 35.85441616987049, 139.6231863946366, 35.85527190087771]}, {"id": "112", "type": "Feature", "properties": {"N13_001": "2022-03-23", "N13_002": "1", "N13_003": "1", "N13_004": "1", "N13_005": 0, "N13_006": "4", "N13_007": "1", "N13_008": "533964", "rosen_name": 17}, "geometry": {"type": "LineString", "coordinates": [[139.62489414155152, 35.849403452207696], [139.62480936066368, 35.84967944425114], [139.62470077831847, 35.85000000039986], [139.62438177799686, 35.85094180641937], [139.6243001393401, 35.85118769365732]]}, "bbox": [139.6243001393401, 35.849403452207696, 139.62489414155152, 35.85118769365732]}, {"id": "113", "type": "Feature", "properties": {"N13_001": "2022-03-23", "N13_002": "1", "N13_003": "1", "N13_004": "1", "N13_005": 0, "N13_006": "4", "N13_007": "1", "N13_008": "533964", "rosen_name": 17}, "geometry": {"type": "LineString", "coordinates": [[139.62323337881753, 35.855350775917714], [139.62354353610544, 35.854428149739476], [139.6238532572222, 35.85345498885681]]}, "bbox": [139.62323337881753, 35.85345498885681, 139.6238532572222, 35.855350775917714]}, {"id": "114", "type": "Feature", "properties": {"N13_001": "2022-03-23", "N13_002": "1", "N13_003": "1", "N13_004": "1", "N13_005": 0, "N13_006": "4", "N13_007": "1", "N13_008": "533964", "rosen_name": 17}, "geometry": {"type": "LineString", "coordinates": [[139.62458579909548, 35.85128959583835], [139.62497603561576, 35.850167188864816], [139.62499999985027, 35.85009975589918]]}, "bbox": [139.62458579909548, 35.85009975589918, 139.62499999985027, 35.85128959583835]}, {"id": "115", "type": "Feature", "properties": {"N13_001": "2022-03-23", "N13_002": "1", "N13_003": "1", "N13_004": "1", "N13_005": 0, "N13_006": "3", "N13_007": "1", "N13_008": "533965", "rosen_name": 17}, "geometry": {"type": "LineString", "coordinates": [[139.63204758292977, 35.83447416664961], [139.63249830605218, 35.83399091684748]]}, "bbox": [139.63204758292977, 35.83399091684748, 139.63249830605218, 35.83447416664961]}, {"id": "116", "type": "Feature", "properties": {"N13_001": "2022-03-23", "N13_002": "1", "N13_003": "1", "N13_004": "1", "N13_005": 0, "N13_006": "3", "N13_007": "1", "N13_008": "533965", "rosen_name": 17}, "geometry": {"type": "LineString", "coordinates": [[139.63213811678088, 35.833333332567406], [139.63188533264213, 35.83364463918889]]}, "bbox": [139.63188533264213, 35.833333332567406, 139.63213811678088, 35.83364463918889]}, {"id": "117", "type": "Feature", "properties": {"N13_001": "2022-03-23", "N13_002": "1", "N13_003": "1", "N13_004": "1", "N13_005": 0, "N13_006": "3", "N13_007": "1", "N13_008": "533965", "rosen_name": 17}, "geometry": {"type": "LineString", "coordinates": [[139.63188533264213, 35.83364463918889], [139.6313267502295, 35.834311944240994], [139.63093180575845, 35.834783555916545], [139.63071618430467, 35.83503819085996]]}, "bbox": [139.63071618430467, 35.83364463918889, 139.63188533264213, 35.83503819085996]}, {"id": "118", "type": "Feature", "properties": {"N13_001": "2022-03-23", "N13_002": "1", "N13_003": "1", "N13_004": "1", "N13_005": 0, "N13_006": "3", "N13_007": "1", "N13_008": "533965", "rosen_name": 17}, "geometry": {"type": "LineString", "coordinates": [[139.63071618430467, 35.83503819085996], [139.63057405634777, 35.83521930622618]]}, "bbox": [139.63057405634777, 35.83503819085996, 139.63071618430467, 35.83521930622618]}, {"id": "119", "type": "Feature", "properties": {"N13_001": "2022-03-23", "N13_002": "1", "N13_003": "1", "N13_004": "1", "N13_005": 0, "N13_006": "3", "N13_007": "1", "N13_008": "533965", "rosen_name": 17}, "geometry": {"type": "LineString", "coordinates": [[139.62835897218895, 35.839259749737835], [139.6280175283864, 35.84027877784348]]}, "bbox": [139.6280175283864, 35.839259749737835, 139.62835897218895, 35.84027877784348]}, {"id": "120", "type": "Feature", "properties": {"N13_001": "2022-03-23", "N13_002": "1", "N13_003": "1", "N13_004": "1", "N13_005": 0, "N13_006": "3", "N13_007": "1", "N13_008": "533965", "rosen_name": 17}, "geometry": {"type": "LineString", "coordinates": [[139.6318995563197, 35.834606000067026], [139.63204758292977, 35.83447416664961]]}, "bbox": [139.6318995563197, 35.83447416664961, 139.63204758292977, 35.834606000067026]}, {"id": "121", "type": "Feature", "properties": {"N13_001": "2022-03-23", "N13_002": "1", "N13_003": "1", "N13_004": "1", "N13_005": 0, "N13_006": "3", "N13_007": "1", "N13_008": "533965", "rosen_name": 17}, "geometry": {"type": "LineString", "coordinates": [[139.6280175283864, 35.84027877784348], [139.6276834958968, 35.841259961578146]]}, "bbox": [139.6276834958968, 35.84027877784348, 139.6280175283864, 35.841259961578146]}, {"id": "122", "type": "Feature", "properties": {"N13_001": "2022-03-23", "N13_002": "1", "N13_003": "1", "N13_004": "1", "N13_005": 0, "N13_006": "3", "N13_007": "1", "N13_008": "533965", "rosen_name": 17}, "geometry": {"type": "LineString", "coordinates": [[139.6299943497596, 35.836570790309906], [139.63017881959706, 35.8363076522765]]}, "bbox": [139.6299943497596, 35.8363076522765, 139.63017881959706, 35.836570790309906]}, {"id": "123", "type": "Feature", "properties": {"N13_001": "2022-03-23", "N13_002": "1", "N13_003": "1", "N13_004": "1", "N13_005": 0, "N13_006": "3", "N13_007": "1", "N13_008": "533965", "rosen_name": 17}, "geometry": {"type": "LineString", "coordinates": [[139.63017881959706, 35.8363076522765], [139.63062043258708, 35.83580718855109]]}, "bbox": [139.63017881959706, 35.83580718855109, 139.63062043258708, 35.8363076522765]}, {"id": "124", "type": "Feature", "properties": {"N13_001": "2022-03-23", "N13_002": "1", "N13_003": "1", "N13_004": "1", "N13_005": 0, "N13_006": "3", "N13_007": "1", "N13_008": "533965", "rosen_name": 17}, "geometry": {"type": "LineString", "coordinates": [[139.63062043258708, 35.83580718855109], [139.63078583319987, 35.83563616717555], [139.63105619368855, 35.83535469376426]]}, "bbox": [139.63062043258708, 35.83535469376426, 139.63105619368855, 35.83580718855109]}, {"id": "125", "type": "Feature", "properties": {"N13_001": "2022-03-23", "N13_002": "1", "N13_003": "1", "N13_004": "1", "N13_005": 0, "N13_006": "3", "N13_007": "1", "N13_008": "533965", "rosen_name": 17}, "geometry": {"type": "LineString", "coordinates": [[139.63105619368855, 35.83535469376426], [139.63160133663257, 35.83488290222431]]}, "bbox": [139.63105619368855, 35.83488290222431, 139.63160133663257, 35.83535469376426]}, {"id": "126", "type": "Feature", "properties": {"N13_001": "2022-03-23", "N13_002": "1", "N13_003": "1", "N13_004": "1", "N13_005": 0, "N13_006": "3", "N13_007": "1", "N13_008": "533965", "rosen_name": 17}, "geometry": {"type": "LineString", "coordinates": [[139.63160133663257, 35.83488290222431], [139.6318995563197, 35.834606000067026]]}, "bbox": [139.63160133663257, 35.834606000067026, 139.6318995563197, 35.83488290222431]}, {"id": "127", "type": "Feature", "properties": {"N13_001": "2022-03-23", "N13_002": "1", "N13_003": "1", "N13_004": "1", "N13_005": 0, "N13_006": "3", "N13_007": "1", "N13_008": "533965", "rosen_name": 17}, "geometry": {"type": "LineString", "coordinates": [[139.63249830605218, 35.83399091684748], [139.63304519637893, 35.833333332567406]]}, "bbox": [139.63249830605218, 35.833333332567406, 139.63304519637893, 35.83399091684748]}, {"id": "128", "type": "Feature", "properties": {"N13_001": "2022-03-23", "N13_002": "1", "N13_003": "1", "N13_004": "1", "N13_005": 0, "N13_006": "3", "N13_007": "1", "N13_008": "533965", "rosen_name": 17}, "geometry": {"type": "LineString", "coordinates": [[139.6298442223332, 35.836133360966016], [139.62955141656482, 35.83658000026696], [139.62930908344765, 35.837008610858845], [139.62922863909057, 35.83715094386116]]}, "bbox": [139.62922863909057, 35.836133360966016, 139.6298442223332, 35.83715094386116]}, {"id": "129", "type": "Feature", "properties": {"N13_001": "2022-03-23", "N13_002": "1", "N13_003": "1", "N13_004": "1", "N13_005": 0, "N13_006": "4", "N13_007": "1", "N13_008": "533965", "rosen_name": 17}, "geometry": {"type": "LineString", "coordinates": [[139.62572650277605, 35.84804871167887], [139.6258447240549, 35.84771081210448]]}, "bbox": [139.62572650277605, 35.84771081210448, 139.6258447240549, 35.84804871167887]}, {"id": "130", "type": "Feature", "properties": {"N13_001": "2022-03-23", "N13_002": "1", "N13_003": "1", "N13_004": "1", "N13_005": 0, "N13_006": "3", "N13_007": "1", "N13_008": "533965", "rosen_name": 17}, "geometry": {"type": "LineString", "coordinates": [[139.62631925313121, 35.84637449868433], [139.6264221391706, 35.84606672190188], [139.626650611037, 35.84543761105709]]}, "bbox": [139.62631925313121, 35.84543761105709, 139.626650611037, 35.84637449868433]}, {"id": "131", "type": "Feature", "properties": {"N13_001": "2022-03-23", "N13_002": "1", "N13_003": "1", "N13_004": "1", "N13_005": 0, "N13_006": "3", "N13_007": "1", "N13_008": "533965", "rosen_name": 17}, "geometry": {"type": "LineString", "coordinates": [[139.626650611037, 35.84543761105709], [139.62677214002247, 35.845027507613565]]}, "bbox": [139.626650611037, 35.845027507613565, 139.62677214002247, 35.84543761105709]}, {"id": "132", "type": "Feature", "properties": {"N13_001": "2022-03-23", "N13_002": "1", "N13_003": "1", "N13_004": "1", "N13_005": 0, "N13_006": "3", "N13_007": "1", "N13_008": "533965", "rosen_name": 17}, "geometry": {"type": "LineString", "coordinates": [[139.62705420968416, 35.84310036568951], [139.62689794888138, 35.84353959907338]]}, "bbox": [139.62689794888138, 35.84310036568951, 139.62705420968416, 35.84353959907338]}, {"id": "133", "type": "Feature", "properties": {"N13_001": "2022-03-23", "N13_002": "1", "N13_003": "1", "N13_004": "1", "N13_005": 0, "N13_006": "4", "N13_007": "1", "N13_008": "533965", "rosen_name": 17}, "geometry": {"type": "LineString", "coordinates": [[139.62596041104428, 35.84623641767672], [139.625865087404, 35.84651812311307]]}, "bbox": [139.625865087404, 35.84623641767672, 139.62596041104428, 35.84651812311307]}, {"id": "134", "type": "Feature", "properties": {"N13_001": "2022-03-23", "N13_002": "1", "N13_003": "1", "N13_004": "1", "N13_005": 0, "N13_006": "4", "N13_007": "1", "N13_008": "533965", "rosen_name": 17}, "geometry": {"type": "LineString", "coordinates": [[139.6258447240549, 35.84771081210448], [139.62609492893796, 35.847005536776294]]}, "bbox": [139.6258447240549, 35.847005536776294, 139.62609492893796, 35.84771081210448]}, {"id": "135", "type": "Feature", "properties": {"N13_001": "2022-03-23", "N13_002": "1", "N13_003": "1", "N13_004": "1", "N13_005": 0, "N13_006": "4", "N13_007": "1", "N13_008": "533965", "rosen_name": 17}, "geometry": {"type": "LineString", "coordinates": [[139.62609492893796, 35.847005536776294], [139.62631925313121, 35.84637449868433]]}, "bbox": [139.62609492893796, 35.84637449868433, 139.62631925313121, 35.847005536776294]}, {"id": "136", "type": "Feature", "properties": {"N13_001": "2022-03-23", "N13_002": "1", "N13_003": "1", "N13_004": "1", "N13_005": 0, "N13_006": "4", "N13_007": "1", "N13_008": "533965", "rosen_name": 17}, "geometry": {"type": "LineString", "coordinates": [[139.62549466744508, 35.84764005614386], [139.62529786070786, 35.8482253061531], [139.62519346830413, 35.84853029143994]]}, "bbox": [139.62519346830413, 35.84764005614386, 139.62549466744508, 35.84853029143994]}, {"id": "137", "type": "Feature", "properties": {"N13_001": "2022-03-23", "N13_002": "1", "N13_003": "1", "N13_004": "1", "N13_005": 0, "N13_006": "3", "N13_007": "1", "N13_008": "533965", "rosen_name": 17}, "geometry": {"type": "LineString", "coordinates": [[139.62673869423554, 35.843987250111695], [139.6266608606104, 35.84420586091193]]}, "bbox": [139.6266608606104, 35.843987250111695, 139.62673869423554, 35.84420586091193]}, {"id": "138", "type": "Feature", "properties": {"N13_001": "2022-03-23", "N13_002": "1", "N13_003": "1", "N13_004": "1", "N13_005": 0, "N13_006": "3", "N13_007": "1", "N13_008": "533965", "rosen_name": 17}, "geometry": {"type": "LineString", "coordinates": [[139.6266608606104, 35.84420586091193], [139.62626755560336, 35.84531036058485], [139.62596041104428, 35.84623641767672]]}, "bbox": [139.62596041104428, 35.84420586091193, 139.6266608606104, 35.84623641767672]}, {"id": "139", "type": "Feature", "properties": {"N13_001": "2022-03-23", "N13_002": "1", "N13_003": "1", "N13_004": "1", "N13_005": 0, "N13_006": "3", "N13_007": "1", "N13_008": "533965", "rosen_name": 17}, "geometry": {"type": "LineString", "coordinates": [[139.62677214002247, 35.845027507613565], [139.6269988815933, 35.84434387267174]]}, "bbox": [139.62677214002247, 35.84434387267174, 139.6269988815933, 35.845027507613565]}, {"id": "140", "type": "Feature", "properties": {"N13_001": "2022-03-23", "N13_002": "1", "N13_003": "1", "N13_004": "1", "N13_005": 0, "N13_006": "3", "N13_007": "1", "N13_008": "533965", "rosen_name": 17}, "geometry": {"type": "LineString", "coordinates": [[139.6269988815933, 35.84434387267174], [139.62720955587645, 35.84367436338135]]}, "bbox": [139.6269988815933, 35.84367436338135, 139.62720955587645, 35.84434387267174]}, {"id": "141", "type": "Feature", "properties": {"N13_001": "2022-03-23", "N13_002": "1", "N13_003": "1", "N13_004": "2", "N13_005": 0, "N13_006": "4", "N13_007": "1", "N13_008": "533965", "rosen_name": 17}, "geometry": {"type": "LineString", "coordinates": [[139.62519346830413, 35.84853029143994], [139.62506989605902, 35.848904141413186]]}, "bbox": [139.62506989605902, 35.84853029143994, 139.62519346830413, 35.848904141413186]}, {"id": "142", "type": "Feature", "properties": {"N13_001": "2022-03-23", "N13_002": "1", "N13_003": "1", "N13_004": "1", "N13_005": 0, "N13_006": "4", "N13_007": "1", "N13_008": "533965", "rosen_name": 17}, "geometry": {"type": "LineString", "coordinates": [[139.625865087404, 35.84651812311307], [139.62562311131774, 35.84725811137292], [139.62549466744508, 35.84764005614386]]}, "bbox": [139.62549466744508, 35.84651812311307, 139.625865087404, 35.84764005614386]}, {"id": "143", "type": "Feature", "properties": {"N13_001": "2022-03-23", "N13_002": "1", "N13_003": "1", "N13_004": "1", "N13_005": 0, "N13_006": "4", "N13_007": "1", "N13_008": "533965", "rosen_name": 17}, "geometry": {"type": "LineString", "coordinates": [[139.62500759282636, 35.84908110101219], [139.62499999985027, 35.84910267574804]]}, "bbox": [139.62499999985027, 35.84908110101219, 139.62500759282636, 35.84910267574804]}, {"id": "144", "type": "Feature", "properties": {"N13_001": "2022-03-23", "N13_002": "1", "N13_003": "1", "N13_004": "2", "N13_005": 0, "N13_006": "4", "N13_007": "1", "N13_008": "533965", "rosen_name": 17}, "geometry": {"type": "LineString", "coordinates": [[139.62535215098114, 35.849108801030525], [139.62539327068305, 35.84899521665608]]}, "bbox": [139.62535215098114, 35.84899521665608, 139.62539327068305, 35.849108801030525]}, {"id": "145", "type": "Feature", "properties": {"N13_001": "2022-03-23", "N13_002": "1", "N13_003": "1", "N13_004": "2", "N13_005": 0, "N13_006": "4", "N13_007": "1", "N13_008": "533965", "rosen_name": 17}, "geometry": {"type": "LineString", "coordinates": [[139.62506989605902, 35.848904141413186], [139.62500759282636, 35.84908110101219]]}, "bbox": [139.62500759282636, 35.848904141413186, 139.62506989605902, 35.84908110101219]}, {"id": "146", "type": "Feature", "properties": {"N13_001": "2022-03-23", "N13_002": "1", "N13_003": "1", "N13_004": "2", "N13_005": 0, "N13_006": "4", "N13_007": "1", "N13_008": "533965", "rosen_name": 17}, "geometry": {"type": "LineString", "coordinates": [[139.62539327068305, 35.84899521665608], [139.6254829483795, 35.8487545239023]]}, "bbox": [139.62539327068305, 35.8487545239023, 139.6254829483795, 35.84899521665608]}, {"id": "147", "type": "Feature", "properties": {"N13_001": "2022-03-23", "N13_002": "1", "N13_003": "1", "N13_004": "1", "N13_005": 0, "N13_006": "3", "N13_007": "1", "N13_008": "533965", "rosen_name": 17}, "geometry": {"type": "LineString", "coordinates": [[139.62689794888138, 35.84353959907338], [139.62673869423554, 35.843987250111695]]}, "bbox": [139.62673869423554, 35.84353959907338, 139.62689794888138, 35.843987250111695]}, {"id": "148", "type": "Feature", "properties": {"N13_001": "2022-03-23", "N13_002": "1", "N13_003": "1", "N13_004": "1", "N13_005": 0, "N13_006": "3", "N13_007": "1", "N13_008": "533965", "rosen_name": 17}, "geometry": {"type": "LineString", "coordinates": [[139.62720955587645, 35.84367436338135], [139.62736570606262, 35.8431781300668]]}, "bbox": [139.62720955587645, 35.8431781300668, 139.62736570606262, 35.84367436338135]}, {"id": "149", "type": "Feature", "properties": {"N13_001": "2022-03-23", "N13_002": "1", "N13_003": "1", "N13_004": "1", "N13_005": 0, "N13_006": "3", "N13_007": "1", "N13_008": "533965", "rosen_name": 17}, "geometry": {"type": "LineString", "coordinates": [[139.62616853035354, 35.84606330807537], [139.62692744484593, 35.84380180181188], [139.62693886533657, 35.843668522284645], [139.62689794888138, 35.84353959907338]]}, "bbox": [139.62616853035354, 35.84353959907338, 139.62693886533657, 35.84606330807537]}, {"id": "150", "type": "Feature", "properties": {"N13_001": "2022-03-23", "N13_002": "1", "N13_003": "1", "N13_004": "1", "N13_005": 0, "N13_006": "3", "N13_007": "1", "N13_008": "533965", "rosen_name": 17}, "geometry": {"type": "LineString", "coordinates": [[139.62628359860935, 35.84609086240357], [139.62704735864884, 35.84384674543111], [139.6271196893224, 35.84373671158016], [139.62720955587645, 35.84367436338135]]}, "bbox": [139.62628359860935, 35.84367436338135, 139.62720955587645, 35.84609086240357]}, {"id": "151", "type": "Feature", "properties": {"N13_001": "2022-03-23", "N13_002": "1", "N13_003": "1", "N13_004": "3", "N13_005": 0, "N13_006": "3", "N13_007": "1", "N13_008": "533965", "rosen_name": 17}, "geometry": {"type": "LineString", "coordinates": [[139.62601624095691, 35.84651090605365], [139.62616853035354, 35.84606330807537]]}, "bbox": [139.62601624095691, 35.84606330807537, 139.62616853035354, 35.84651090605365]}, {"id": "152", "type": "Feature", "properties": {"N13_001": "2022-03-23", "N13_002": "1", "N13_003": "1", "N13_004": "2", "N13_005": 0, "N13_006": "3", "N13_007": "1", "N13_008": "533965", "rosen_name": 17}, "geometry": {"type": "LineString", "coordinates": [[139.62506989605902, 35.848904141413186], [139.6251775494046, 35.84884779079306], [139.62524828737878, 35.84876533015603], [139.62530011620754, 35.84861290226377]]}, "bbox": [139.62506989605902, 35.84861290226377, 139.62530011620754, 35.848904141413186]}, {"id": "153", "type": "Feature", "properties": {"N13_001": "2022-03-23", "N13_002": "1", "N13_003": "1", "N13_004": "3", "N13_005": 0, "N13_006": "3", "N13_007": "1", "N13_008": "533965", "rosen_name": 17}, "geometry": {"type": "LineString", "coordinates": [[139.62613357460498, 35.846540300394736], [139.62628359860935, 35.84609086240357]]}, "bbox": [139.62613357460498, 35.84609086240357, 139.62628359860935, 35.846540300394736]}, {"id": "154", "type": "Feature", "properties": {"N13_001": "2022-03-23", "N13_002": "1", "N13_003": "1", "N13_004": "2", "N13_005": 0, "N13_006": "3", "N13_007": "1", "N13_008": "533965", "rosen_name": 17}, "geometry": {"type": "LineString", "coordinates": [[139.62539327068305, 35.84899521665608], [139.62535760896662, 35.8488962201846], [139.62536564710706, 35.8487967443744], [139.62540160380115, 35.848691514701784]]}, "bbox": [139.62535760896662, 35.848691514701784, 139.62540160380115, 35.84899521665608]}, {"id": "155", "type": "Feature", "properties": {"N13_001": "2022-03-23", "N13_002": "1", "N13_003": "1", "N13_004": "1", "N13_005": 0, "N13_006": "3", "N13_007": "1", "N13_008": "533965", "rosen_name": 17}, "geometry": {"type": "LineString", "coordinates": [[139.62530011620754, 35.84861290226377], [139.6255651374213, 35.84783348862476], [139.62601624095691, 35.84651090605365]]}, "bbox": [139.62530011620754, 35.84651090605365, 139.62601624095691, 35.84861290226377]}, {"id": "156", "type": "Feature", "properties": {"N13_001": "2022-03-23", "N13_002": "1", "N13_003": "1", "N13_004": "1", "N13_005": 0, "N13_006": "3", "N13_007": "1", "N13_008": "533965", "rosen_name": 17}, "geometry": {"type": "LineString", "coordinates": [[139.62540160380115, 35.848691514701784], [139.6256851744314, 35.84786164819667], [139.62613357460498, 35.846540300394736]]}, "bbox": [139.62540160380115, 35.846540300394736, 139.62613357460498, 35.848691514701784]}, {"id": "157", "type": "Feature", "properties": {"N13_001": "2022-03-23", "N13_002": "1", "N13_003": "1", "N13_004": "1", "N13_005": 0, "N13_006": "3", "N13_007": "1", "N13_008": "533965", "rosen_name": 17}, "geometry": {"type": "LineString", "coordinates": [[139.6280015276485, 35.84134394386808], [139.62825691712317, 35.84059994373257], [139.62865367013092, 35.839420139328126]]}, "bbox": [139.6280015276485, 35.839420139328126, 139.62865367013092, 35.84134394386808]}, {"id": "158", "type": "Feature", "properties": {"N13_001": "2022-03-23", "N13_002": "1", "N13_003": "1", "N13_004": "1", "N13_005": 0, "N13_006": "3", "N13_007": "1", "N13_008": "533965", "rosen_name": 17}, "geometry": {"type": "LineString", "coordinates": [[139.62865367013092, 35.839420139328126], [139.62881761114397, 35.83898886134705], [139.62896605593892, 35.838581472057456], [139.62901136108565, 35.838433888813086], [139.6290664616481, 35.83827491205773], [139.62928076469575, 35.837764676298946], [139.62949194169994, 35.83735878438057], [139.6296952217573, 35.83701491690505], [139.62982602814884, 35.83681880624306], [139.6299943497596, 35.836570790309906]]}, "bbox": [139.62865367013092, 35.836570790309906, 139.6299943497596, 35.839420139328126]}, {"id": "159", "type": "Feature", "properties": {"N13_001": "2022-03-23", "N13_002": "1", "N13_003": "1", "N13_004": "1", "N13_005": 0, "N13_006": "3", "N13_007": "1", "N13_008": "533965", "rosen_name": 17}, "geometry": {"type": "LineString", "coordinates": [[139.62922863909057, 35.83715094386116], [139.62911146911915, 35.83737108171022], [139.62886141622153, 35.83788440664023], [139.6287296673405, 35.838199083021436], [139.62863975042433, 35.83841263873245], [139.62851108262055, 35.83877333342275], [139.6284285833126, 35.839038638822274], [139.62835897218895, 35.839259749737835]]}, "bbox": [139.62835897218895, 35.83715094386116, 139.62922863909057, 35.839259749737835]}, {"id": "160", "type": "Feature", "properties": {"N13_001": "2022-03-23", "N13_002": "1", "N13_003": "1", "N13_004": "1", "N13_005": 0, "N13_006": "3", "N13_007": "1", "N13_008": "533965", "rosen_name": 17}, "geometry": {"type": "LineString", "coordinates": [[139.6276834958968, 35.841259961578146], [139.62758844385178, 35.84152558263969], [139.62753755571384, 35.84166666738298], [139.62731788910946, 35.84227563880984], [139.62705420968416, 35.84310036568951]]}, "bbox": [139.62705420968416, 35.841259961578146, 139.6276834958968, 35.84310036568951]}, {"id": "161", "type": "Feature", "properties": {"N13_001": "2022-03-23", "N13_002": "1", "N13_003": "1", "N13_004": "1", "N13_005": 0, "N13_006": "3", "N13_007": "1", "N13_008": "533965", "rosen_name": 17}, "geometry": {"type": "LineString", "coordinates": [[139.62736570606262, 35.8431781300668], [139.6277887498511, 35.841993555658235], [139.6278958330264, 35.84166666738298], [139.6280015276485, 35.84134394386808]]}, "bbox": [139.62736570606262, 35.84134394386808, 139.6280015276485, 35.8431781300668]}, {"id": "162", "type": "Feature", "properties": {"N13_001": "2022-03-23", "N13_002": "1", "N13_003": "1", "N13_004": "1", "N13_005": 0, "N13_006": "3", "N13_007": "1", "N13_008": "533965", "rosen_name": 17}, "geometry": {"type": "LineString", "coordinates": [[139.63057405634777, 35.83521930622618], [139.63009701186775, 35.835795804033296], [139.6298442223332, 35.836133360966016]]}, "bbox": [139.6298442223332, 35.83521930622618, 139.63057405634777, 35.836133360966016]}, {"id": "163", "type": "Feature", "properties": {"N13_001": "2022-03-23", "N13_002": "1", "N13_003": "1", "N13_004": "1", "N13_005": 0, "N13_006": "4", "N13_007": "1", "N13_008": "533965", "rosen_name": 17}, "geometry": {"type": "LineString", "coordinates": [[139.62499999985027, 35.85009975589918], [139.62503545022605, 35.85000000039986], [139.62535215098114, 35.849108801030525]]}, "bbox": [139.62499999985027, 35.849108801030525, 139.62535215098114, 35.85009975589918]}, {"id": "164", "type": "Feature", "properties": {"N13_001": "2022-03-23", "N13_002": "1", "N13_003": "1", "N13_004": "1", "N13_005": 0, "N13_006": "4", "N13_007": "1", "N13_008": "533965", "rosen_name": 17}, "geometry": {"type": "LineString", "coordinates": [[139.6254829483795, 35.8487545239023], [139.62552132694782, 35.84864294681472], [139.62572650277605, 35.84804871167887]]}, "bbox": [139.6254829483795, 35.84804871167887, 139.62572650277605, 35.8487545239023]}], "bbox": [139.6085680829508, 35.80225361431303, 139.64744895770343, 35.85748346329137]}